{
"type": "FeatureCollection",
"name": "FAZENDAS_01",
"crs": { "type": "name", "properties": { "name": "urn:ogc:def:crs:OGC:1.3:CRS84" } },
"features": [
{ "type": "Feature", "properties": { "nome_faz": "FAZ. PLANALTO III", "cod_cod_fazenda": "1210.0", "area_total": 2032.05 }, "geometry": { "type": "Point", "coordinates": [ -40.08725797874304, -18.382347300367435 ] } },
{ "type": "Feature", "properties": { "nome_faz": "FAZ. HORIZONTE IV_ Area Comprada Jonas", "cod_cod_fazenda": "5703.0", "area_total": 1751.17 }, "geometry": { "type": "Point", "coordinates": [ -39.951409656519495, -18.412927044415245 ] } },
{ "type": "Feature", "properties": { "nome_faz": "FAZ. ESPLANADA I - Sayonara", "cod_cod_fazenda": "2985.0", "area_total": 34518.96 }, "geometry": { "type": "Point", "coordinates": [ -40.108396671185588, -18.454778804089294 ] } },
{ "type": "Feature", "properties": { "nome_faz": "FAZ. SAO SEBASTIAO_ Ana Maria Guimaraes", "cod_cod_fazenda": "7846.0", "area_total": 4267.97 }, "geometry": { "type": "Point", "coordinates": [ -40.162083935749031, -18.08973846719735 ] } },
{ "type": "Feature", "properties": { "nome_faz": "FAZ. SAO DOMINGOS I", "cod_cod_fazenda": "531.0", "area_total": 1518.86 }, "geometry": { "type": "Point", "coordinates": [ -40.040580015401602, -18.52843016920859 ] } },
{ "type": "Feature", "properties": { "nome_faz": "FAZ. SANTA IGNES II", "cod_cod_fazenda": "582.0", "area_total": 16860.48 }, "geometry": { "type": "Point", "coordinates": [ -39.983450746165346, -18.448447224683125 ] } },
{ "type": "Feature", "properties": { "nome_faz": "FAZ. PLANALTO IV_ Potraz", "cod_cod_fazenda": "1791.0", "area_total": 51.69 }, "geometry": { "type": "Point", "coordinates": [ -40.052141014529319, -18.385053453698752 ] } },
{ "type": "Feature", "properties": { "nome_faz": "FAZ. ZE  MATIAS", "cod_cod_fazenda": "922.0", "area_total": 1045.08 }, "geometry": { "type": "Point", "coordinates": [ -39.9616594416064, -18.456073499107468 ] } },
{ "type": "Feature", "properties": { "nome_faz": "FAZ. CORDANTA R_Nerzy", "cod_cod_fazenda": "8729.0", "area_total": 4620.75 }, "geometry": { "type": "Point", "coordinates": [ -39.879527240632214, -18.401649421967427 ] } },
{ "type": "Feature", "properties": { "nome_faz": "FAZ. SAYONARA  -  PROJETO 22", "cod_cod_fazenda": "205.0", "area_total": 2817.32 }, "geometry": { "type": "Point", "coordinates": [ -39.973359500060077, -18.468661959012323 ] } },
{ "type": "Feature", "properties": { "nome_faz": "FAZ. PLANALTO VIII_ Faz. Pinha", "cod_cod_fazenda": "5835.0", "area_total": 307.93 }, "geometry": { "type": "Point", "coordinates": [ -40.061590559021631, -18.318570003408276 ] } },
{ "type": "Feature", "properties": { "nome_faz": "FAZ. AREA 7_ Marcio Prudencio Salgado", "cod_cod_fazenda": "9806.0", "area_total": 83.25 }, "geometry": { "type": "Point", "coordinates": [ -39.965498394292055, -18.26336913987738 ] } },
{ "type": "Feature", "properties": { "nome_faz": "FAZ. SAYONARA  -  PROJETO 16", "cod_cod_fazenda": "167.0", "area_total": 5172.7 }, "geometry": { "type": "Point", "coordinates": [ -39.947583258697961, -18.449763532304864 ] } },
{ "type": "Feature", "properties": { "nome_faz": "FAZ. SAYONARA  -  PROJETO 05", "cod_cod_fazenda": "86.0", "area_total": 132.06 }, "geometry": { "type": "Point", "coordinates": [ -39.923353693939937, -18.467493975758607 ] } },
{ "type": "Feature", "properties": { "nome_faz": "FAZ. CORDANTA Q_Nerzy", "cod_cod_fazenda": "8753.0", "area_total": 1392.36 }, "geometry": { "type": "Point", "coordinates": [ -39.879141206715552, -18.418365141557 ] } },
{ "type": "Feature", "properties": { "nome_faz": "FAZ. SANTA CECILIA_ Carlos Alberto", "cod_cod_fazenda": "2321.0", "area_total": 115.8 }, "geometry": { "type": "Point", "coordinates": [ -40.097060654522458, -18.476189313955459 ] } },
{ "type": "Feature", "properties": { "nome_faz": "FAZ. UNIAO IV_ Josiane Orletti", "cod_cod_fazenda": "7196.0", "area_total": 98.42 }, "geometry": { "type": "Point", "coordinates": [ -40.004675536963347, -18.325082779923065 ] } },
{ "type": "Feature", "properties": { "nome_faz": "FAZ. SAYONARA  -  PROJETO 27", "cod_cod_fazenda": "248.0", "area_total": 814.33 }, "geometry": { "type": "Point", "coordinates": [ -39.931151243199025, -18.468979195206675 ] } },
{ "type": "Feature", "properties": { "nome_faz": "FAZ. SAMADHI I", "cod_cod_fazenda": "493.0", "area_total": 7231.17 }, "geometry": { "type": "Point", "coordinates": [ -39.884652480299899, -18.496564399367831 ] } },
{ "type": "Feature", "properties": { "nome_faz": "FAZ. CANA LONGA_ Nerzy", "cod_cod_fazenda": "8681.0", "area_total": 12537.45 }, "geometry": { "type": "Point", "coordinates": [ -39.970698609532597, -18.358670661291367 ] } },
{ "type": "Feature", "properties": { "nome_faz": "FAZ. SAYONARA  -  PROJETO 41", "cod_cod_fazenda": "761.0", "area_total": 5247.06 }, "geometry": { "type": "Point", "coordinates": [ -39.966115455775267, -18.497540082528651 ] } },
{ "type": "Feature", "properties": { "nome_faz": "FAZ. CORDANTA E_Nerzy", "cod_cod_fazenda": "8630.0", "area_total": 2913.97 }, "geometry": { "type": "Point", "coordinates": [ -39.867524768803058, -18.463775486370096 ] } },
{ "type": "Feature", "properties": { "nome_faz": "FAZ. TRES LAGOA_ Cooperativa Cristal", "cod_cod_fazenda": "5908.0", "area_total": 5138.54 }, "geometry": { "type": "Point", "coordinates": [ -40.007644020154018, -18.147332413406151 ] } },
{ "type": "Feature", "properties": { "nome_faz": "FAZ. YPUEIRA_ Erivan", "cod_cod_fazenda": "5941.0", "area_total": 7961.58 }, "geometry": { "type": "Point", "coordinates": [ -40.097796971506675, -18.249536945640486 ] } },
{ "type": "Feature", "properties": { "nome_faz": "FAZ. CANADA IV_ Marcelo Marabote", "cod_cod_fazenda": "7323.0", "area_total": 6371.82 }, "geometry": { "type": "Point", "coordinates": [ -40.170153348109835, -17.96809374086968 ] } },
{ "type": "Feature", "properties": { "nome_faz": "FAZ. ITAUNINHAS_ Dr. Nelson_Luiz Claudio", "cod_cod_fazenda": "2292.0", "area_total": 30339.9 }, "geometry": { "type": "Point", "coordinates": [ -40.228341457134484, -18.46914436522729 ] } },
{ "type": "Feature", "properties": { "nome_faz": "FAZ. MARILIA_ Atenogenes Azevedo", "cod_cod_fazenda": "1414.0", "area_total": 197.84 }, "geometry": { "type": "Point", "coordinates": [ -40.014245484394856, -18.153334864516406 ] } },
{ "type": "Feature", "properties": { "nome_faz": "FAZ. FLOR DO CAMPO_ Marcos Gusmao", "cod_cod_fazenda": "9296.0", "area_total": 65.96 }, "geometry": { "type": "Point", "coordinates": [ -40.168261824035518, -18.09889374988774 ] } },
{ "type": "Feature", "properties": { "nome_faz": "FAZ. TRES LAGOAS_9725", "cod_cod_fazenda": "9725.0", "area_total": 216.95 }, "geometry": { "type": "Point", "coordinates": [ -40.001282606242533, -18.135306592097514 ] } },
{ "type": "Feature", "properties": { "nome_faz": "FAZ. CORDANTA H_Nerzy", "cod_cod_fazenda": "8761.0", "area_total": 125.64 }, "geometry": { "type": "Point", "coordinates": [ -39.890313379634598, -18.459625874869026 ] } },
{ "type": "Feature", "properties": { "nome_faz": "SITIO DA JABUTICABEIRA_ Elenice Farmacia", "cod_cod_fazenda": "6050.0", "area_total": 557.88 }, "geometry": { "type": "Point", "coordinates": [ -39.91860466175666, -18.45974989386206 ] } },
{ "type": "Feature", "properties": { "nome_faz": "FAZ. SAO DOMINGOS III_566", "cod_cod_fazenda": "566.0", "area_total": 2572.56 }, "geometry": { "type": "Point", "coordinates": [ -40.058938401866754, -18.531033521775164 ] } },
{ "type": "Feature", "properties": { "nome_faz": "FAZ. SAYONARA  -  PROJETO 28", "cod_cod_fazenda": "256.0", "area_total": 1487.7 }, "geometry": { "type": "Point", "coordinates": [ -39.935544038319463, -18.476845969862506 ] } },
{ "type": "Feature", "properties": { "nome_faz": "FAZ. PLANALTO V - Wilson", "cod_cod_fazenda": "2747.0", "area_total": 1667.54 }, "geometry": { "type": "Point", "coordinates": [ -40.03823236239333, -18.38167451454342 ] } },
{ "type": "Feature", "properties": { "nome_faz": "FAZ. ITAUNINHAS_ Dr. Nelson", "cod_cod_fazenda": "2291.0", "area_total": 28340.28 }, "geometry": { "type": "Point", "coordinates": [ -40.213486982485534, -18.470456833239627 ] } },
{ "type": "Feature", "properties": { "nome_faz": "FAZ. SANTO AMARO_ Luiz Carlos Azevedo", "cod_cod_fazenda": "9423.0", "area_total": 80.5 }, "geometry": { "type": "Point", "coordinates": [ -40.08882207536054, -18.051542945229684 ] } },
{ "type": "Feature", "properties": { "nome_faz": "RANCHO DOS MENINOS_Nerzy_ Jose Luiz", "cod_cod_fazenda": "9709.0", "area_total": 196.92 }, "geometry": { "type": "Point", "coordinates": [ -40.051688040320798, -18.059202876907055 ] } },
{ "type": "Feature", "properties": { "nome_faz": "FAZ. CANADA III_ Marcelo Marabote", "cod_cod_fazenda": "7315.0", "area_total": 5051.4 }, "geometry": { "type": "Point", "coordinates": [ -40.166459185518512, -17.986344082140359 ] } },
{ "type": "Feature", "properties": { "nome_faz": "FAZ. SAYONARA  -  PROJETO 39", "cod_cod_fazenda": "370.0", "area_total": 6669.77 }, "geometry": { "type": "Point", "coordinates": [ -39.951120452756022, -18.511115514987697 ] } },
{ "type": "Feature", "properties": { "nome_faz": "FAZ. SAYONARA  -  PROJETO 15", "cod_cod_fazenda": "159.0", "area_total": 1015.24 }, "geometry": { "type": "Point", "coordinates": [ -39.943150178524689, -18.440068955459836 ] } },
{ "type": "Feature", "properties": { "nome_faz": "FAZ. BELA VISTA_ Wagner Cardoso", "cod_cod_fazenda": "6769.0", "area_total": 1855.56 }, "geometry": { "type": "Point", "coordinates": [ -40.180531822684117, -18.452070614883329 ] } },
{ "type": "Feature", "properties": { "nome_faz": "FAZ. SAO JOSE_ Sayonara", "cod_cod_fazenda": "6645.0", "area_total": 35043.65 }, "geometry": { "type": "Point", "coordinates": [ -39.930249192627151, -18.357488334222047 ] } },
{ "type": "Feature", "properties": { "nome_faz": "FAZ. RIO PRETO - Universo I", "cod_cod_fazenda": "736.0", "area_total": 34082.9 }, "geometry": { "type": "Point", "coordinates": [ -40.020870290836463, -18.420757020594795 ] } },
{ "type": "Feature", "properties": { "nome_faz": "FAZ. SAYONARA  -  PROJETO 01", "cod_cod_fazenda": "19.0", "area_total": 308.61 }, "geometry": { "type": "Point", "coordinates": [ -39.917588732880695, -18.485313744526167 ] } },
{ "type": "Feature", "properties": { "nome_faz": "FAZ. PALMEIRAS_ Ze Benço", "cod_cod_fazenda": "7706.0", "area_total": 6732.0 }, "geometry": { "type": "Point", "coordinates": [ -40.095728612863311, -18.3705114714374 ] } },
{ "type": "Feature", "properties": { "nome_faz": "FAZ. SAYONARA  -  PROJETO 34", "cod_cod_fazenda": "426.0", "area_total": 95.34 }, "geometry": { "type": "Point", "coordinates": [ -39.93485672765118, -18.48934834291709 ] } },
{ "type": "Feature", "properties": { "nome_faz": "FAZ. NENZINHO", "cod_cod_fazenda": "1759.0", "area_total": 122.8 }, "geometry": { "type": "Point", "coordinates": [ -40.035593450217554, -18.39741986603925 ] } },
{ "type": "Feature", "properties": { "nome_faz": "FAZ. VITORIO ORLETTI", "cod_cod_fazenda": "6165.0", "area_total": 1323.3 }, "geometry": { "type": "Point", "coordinates": [ -40.229529467547707, -18.349610139821955 ] } },
{ "type": "Feature", "properties": { "nome_faz": "FAZ. PLANALTO I_ Rosy", "cod_cod_fazenda": "841.0", "area_total": 42852.96 }, "geometry": { "type": "Point", "coordinates": [ -40.076746095420596, -18.402479246098505 ] } },
{ "type": "Feature", "properties": { "nome_faz": "FAZ. SICOOB", "cod_cod_fazenda": "6459.0", "area_total": 704.0 }, "geometry": { "type": "Point", "coordinates": [ -40.020785015396982, -18.317238751132951 ] } },
{ "type": "Feature", "properties": { "nome_faz": "FAZ. CAMPONESA_ Osvaldo Junior", "cod_cod_fazenda": "9512.0", "area_total": 643.51 }, "geometry": { "type": "Point", "coordinates": [ -40.100464471818086, -18.076445264353374 ] } },
{ "type": "Feature", "properties": { "nome_faz": "FAZ. GUANABARA_Nerzy", "cod_cod_fazenda": "9253.0", "area_total": 48.6 }, "geometry": { "type": "Point", "coordinates": [ -40.061733324122123, -18.176025808389657 ] } },
{ "type": "Feature", "properties": { "nome_faz": "FAZ. SAYONARA  -  PROJETO 36", "cod_cod_fazenda": "299.0", "area_total": 2310.88 }, "geometry": { "type": "Point", "coordinates": [ -39.94049027794383, -18.508290207313333 ] } },
{ "type": "Feature", "properties": { "nome_faz": "SITIO BELA VISTA I_ Valdete Barbosa", "cod_cod_fazenda": "7790.0", "area_total": 0.0 }, "geometry": { "type": "Point", "coordinates": [ -40.154996593842277, -18.138985643132997 ] } },
{ "type": "Feature", "properties": { "nome_faz": "FAZ. COLORADO_ Nerzy", "cod_cod_fazenda": "2305.0", "area_total": 11706.53 }, "geometry": { "type": "Point", "coordinates": [ -40.06680605903442, -18.185729829637147 ] } },
{ "type": "Feature", "properties": { "nome_faz": "FAZ. SAYONARA  -  PROJETO 26", "cod_cod_fazenda": "337.0", "area_total": 289.68 }, "geometry": { "type": "Point", "coordinates": [ -39.947138530953829, -18.47668477220013 ] } },
{ "type": "Feature", "properties": { "nome_faz": "FAZ. SAYONARA  -  PROJETO 04", "cod_cod_fazenda": "78.0", "area_total": 248.5 }, "geometry": { "type": "Point", "coordinates": [ -39.921177170876419, -18.470263325966169 ] } },
{ "type": "Feature", "properties": { "nome_faz": "FAZ. GUANABARA_ Faissal Ganem", "cod_cod_fazenda": "2089.0", "area_total": 2166.48 }, "geometry": { "type": "Point", "coordinates": [ -40.047339017821542, -18.119444238000309 ] } },
{ "type": "Feature", "properties": { "nome_faz": "FAZ. SANTANA_ Erivan Tavares", "cod_cod_fazenda": "9482.0", "area_total": 6983.52 }, "geometry": { "type": "Point", "coordinates": [ -39.898395810793701, -18.224841811959035 ] } },
{ "type": "Feature", "properties": { "nome_faz": "SITIO BAIANO_ Valdete Lopes", "cod_cod_fazenda": "6904.0", "area_total": 251.05 }, "geometry": { "type": "Point", "coordinates": [ -40.162200457955166, -18.007914376845601 ] } },
{ "type": "Feature", "properties": { "nome_faz": "FAZ. CORDANTA J_Nerzy", "cod_cod_fazenda": "8613.0", "area_total": 19174.99 }, "geometry": { "type": "Point", "coordinates": [ -39.890097722559872, -18.437903494531227 ] } },
{ "type": "Feature", "properties": { "nome_faz": "FAZ. SAO JORGE_ Wagner Luis", "cod_cod_fazenda": "9962.0", "area_total": 422.38 }, "geometry": { "type": "Point", "coordinates": [ -40.249872303195531, -17.915709940454846 ] } },
{ "type": "Feature", "properties": { "nome_faz": "FAZ. PAMPULHA II_ Lucas Azevedo", "cod_cod_fazenda": "8176.0", "area_total": 4051.98 }, "geometry": { "type": "Point", "coordinates": [ -40.044224164105238, -18.082453279488156 ] } },
{ "type": "Feature", "properties": { "nome_faz": "FAZ. SAYONARA  -  PROJETO 25", "cod_cod_fazenda": "230.0", "area_total": 271.25 }, "geometry": { "type": "Point", "coordinates": [ -39.955472486894607, -18.482174449960887 ] } },
{ "type": "Feature", "properties": { "nome_faz": "FAZ. PINHEIROS_ Leda Maria Guimaraes", "cod_cod_fazenda": "7901.0", "area_total": 1354.32 }, "geometry": { "type": "Point", "coordinates": [ -40.143237191344248, -18.086368257357677 ] } },
{ "type": "Feature", "properties": { "nome_faz": "FAZ. LUZIANA_ Marcelo Marabote", "cod_cod_fazenda": "7331.0", "area_total": 1575.99 }, "geometry": { "type": "Point", "coordinates": [ -40.045925393178685, -18.097898676610413 ] } },
{ "type": "Feature", "properties": { "nome_faz": "FAZ. SAO JOSE_ Erivan Tavares", "cod_cod_fazenda": "4405.0", "area_total": 1855.04 }, "geometry": { "type": "Point", "coordinates": [ -40.107540611792771, -18.22080739967895 ] } },
{ "type": "Feature", "properties": { "nome_faz": "FAZ. LUZITANIA_ Marcos Gusmao", "cod_cod_fazenda": "9440.0", "area_total": 382.4 }, "geometry": { "type": "Point", "coordinates": [ -40.025876472741473, -18.127914308875685 ] } },
{ "type": "Feature", "properties": { "nome_faz": "FAZ. CORDANTA K_ Donatti", "cod_cod_fazenda": "7609.0", "area_total": 1329.16 }, "geometry": { "type": "Point", "coordinates": [ -39.917830421841629, -18.428985385940063 ] } },
{ "type": "Feature", "properties": { "nome_faz": "FAZ. SAYONARA  -  PROJETO 03", "cod_cod_fazenda": "35.0", "area_total": 471.7 }, "geometry": { "type": "Point", "coordinates": [ -39.920436306492583, -18.475579147401461 ] } },
{ "type": "Feature", "properties": { "nome_faz": "FAZ. SAYONARA  -  PROJETO 40", "cod_cod_fazenda": "396.0", "area_total": 993.98 }, "geometry": { "type": "Point", "coordinates": [ -39.950683889471357, -18.491680414389986 ] } },
{ "type": "Feature", "properties": { "nome_faz": "FAZ. JUNDIA", "cod_cod_fazenda": "612.0", "area_total": 12334.08 }, "geometry": { "type": "Point", "coordinates": [ -39.88300532660795, -18.366809498188349 ] } },
{ "type": "Feature", "properties": { "nome_faz": "FAZ. ESPLANADA V_ Adi", "cod_cod_fazenda": "6131.0", "area_total": 1133.6 }, "geometry": { "type": "Point", "coordinates": [ -40.137342605042619, -18.456173701756502 ] } },
{ "type": "Feature", "properties": { "nome_faz": "FAZ. SAO GABRIEL_ Edvaldo Ferreira", "cod_cod_fazenda": "8036.0", "area_total": 3282.0000000000009 }, "geometry": { "type": "Point", "coordinates": [ -40.175676028310065, -18.027546344745986 ] } },
{ "type": "Feature", "properties": { "nome_faz": "FAZ. HORIZONTE II", "cod_cod_fazenda": "1660.0", "area_total": 18652.5 }, "geometry": { "type": "Point", "coordinates": [ -39.970419343100176, -18.416265790308842 ] } },
{ "type": "Feature", "properties": { "nome_faz": "FAZ. SAYONARA  -  PROJETO 38", "cod_cod_fazenda": "353.0", "area_total": 655.62 }, "geometry": { "type": "Point", "coordinates": [ -39.948767013201341, -18.520394989511193 ] } },
{ "type": "Feature", "properties": { "nome_faz": "Faz. Santa Branca_Nerzy_9865", "cod_cod_fazenda": "9865.0", "area_total": 3686.4 }, "geometry": { "type": "Point", "coordinates": [ -40.130546095139522, -18.172661419357187 ] } },
{ "type": "Feature", "properties": { "nome_faz": "FAZ. PLANALTO II", "cod_cod_fazenda": "906.0", "area_total": 11967.9 }, "geometry": { "type": "Point", "coordinates": [ -40.070571458767859, -18.387630578906645 ] } },
{ "type": "Feature", "properties": { "nome_faz": "FAZ. CORDANTA N_Nerzy", "cod_cod_fazenda": "8737.0", "area_total": 8117.07 }, "geometry": { "type": "Point", "coordinates": [ -39.854186950496782, -18.463959153866082 ] } },
{ "type": "Feature", "properties": { "nome_faz": "FAZ. ITAJUBA_ Cooperativa Cristal", "cod_cod_fazenda": "6092.0", "area_total": 6584.9 }, "geometry": { "type": "Point", "coordinates": [ -40.042950109109114, -18.047635063578891 ] } },
{ "type": "Feature", "properties": { "nome_faz": "FAZ. IRMROS CORADINE", "cod_cod_fazenda": "5827.0", "area_total": 0.0 }, "geometry": { "type": "Point", "coordinates": [ -40.134273924139876, -18.379770251811387 ] } },
{ "type": "Feature", "properties": { "nome_faz": "FAZ. CAMPONESA_ 9385", "cod_cod_fazenda": "9385.0", "area_total": 146.12 }, "geometry": { "type": "Point", "coordinates": [ -40.097175845744168, -18.098001225019903 ] } },
{ "type": "Feature", "properties": { "nome_faz": "FAZ. SAO JORGE_ Mirtes Souza", "cod_cod_fazenda": "4022.0", "area_total": 1957.68 }, "geometry": { "type": "Point", "coordinates": [ -40.076163341292634, -18.125473632819723 ] } },
{ "type": "Feature", "properties": { "nome_faz": "FAZ. SAYONARA  -  PROJETO 12", "cod_cod_fazenda": "124.0", "area_total": 653.1 }, "geometry": { "type": "Point", "coordinates": [ -39.945456938730004, -18.463468828282764 ] } },
{ "type": "Feature", "properties": { "nome_faz": "FAZ. HORIZONTE III", "cod_cod_fazenda": "3298.0", "area_total": 733.7 }, "geometry": { "type": "Point", "coordinates": [ -39.968419208797606, -18.40174344926071 ] } },
{ "type": "Feature", "properties": { "nome_faz": "FAZ. DIVISOR_ Oribes Storch", "cod_cod_fazenda": "5436.0", "area_total": 70.88 }, "geometry": { "type": "Point", "coordinates": [ -40.096883079528531, -18.054650236243237 ] } },
{ "type": "Feature", "properties": { "nome_faz": "FAZ. CORDANTA I_Nerzy", "cod_cod_fazenda": "8435.0", "area_total": 2467.8 }, "geometry": { "type": "Point", "coordinates": [ -39.892667206310634, -18.450546784417046 ] } },
{ "type": "Feature", "properties": { "nome_faz": "FAZ. SAYONARA  -  PROJETO 19", "cod_cod_fazenda": "311.0", "area_total": 0.0 }, "geometry": { "type": "Point", "coordinates": [ -39.93454193505525, -18.436765839812786 ] } },
{ "type": "Feature", "properties": { "nome_faz": "FAZ. ESTANCIA ANTARES_ Ailton Pierot", "cod_cod_fazenda": "6688.0", "area_total": 0.0 }, "geometry": { "type": "Point", "coordinates": [ -40.105718484251923, -18.057191472260463 ] } },
{ "type": "Feature", "properties": { "nome_faz": "FAZ. PRIMAVERA II_ Sinvaldo", "cod_cod_fazenda": "1406.0", "area_total": 348.8 }, "geometry": { "type": "Point", "coordinates": [ -40.004030190660913, -18.207370664898182 ] } },
{ "type": "Feature", "properties": { "nome_faz": "FAZ. RECANTO_Ceu Azul I_Otaviano", "cod_cod_fazenda": "4308.0", "area_total": 3404.61 }, "geometry": { "type": "Point", "coordinates": [ -40.086422942729321, -18.113373939248426 ] } },
{ "type": "Feature", "properties": { "nome_faz": "FAZ. SCHEKINAH_ Marcelo Marabote", "cod_cod_fazenda": "7340.0", "area_total": 2960.32 }, "geometry": { "type": "Point", "coordinates": [ -40.068488352579145, -18.269259938024625 ] } },
{ "type": "Feature", "properties": { "nome_faz": "FAZ. SANTA RITA_ Wilton Bomfim", "cod_cod_fazenda": "2127.0", "area_total": 81.93 }, "geometry": { "type": "Point", "coordinates": [ -40.057928108896917, -18.10228005981967 ] } },
{ "type": "Feature", "properties": { "nome_faz": "FAZ. TRÊS DE AGOSTO III_ Marcos Gusmao", "cod_cod_fazenda": "5614.0", "area_total": 327.65 }, "geometry": { "type": "Point", "coordinates": [ -40.144268294209283, -18.115002626251151 ] } },
{ "type": "Feature", "properties": { "nome_faz": "FAZ. SANTA IGNES I", "cod_cod_fazenda": "591.0", "area_total": 1080.8 }, "geometry": { "type": "Point", "coordinates": [ -39.972425504792675, -18.454887022976678 ] } },
{ "type": "Feature", "properties": { "nome_faz": "FAZ. SANTA HELENA II_ Diomedes Picolli", "cod_cod_fazenda": "7391.0", "area_total": 14734.81 }, "geometry": { "type": "Point", "coordinates": [ -39.982262638103045, -18.207287295053142 ] } },
{ "type": "Feature", "properties": { "nome_faz": "FAZ. ESPLANADA I - Monica", "cod_cod_fazenda": "2984.0", "area_total": 44387.18 }, "geometry": { "type": "Point", "coordinates": [ -40.110245710292098, -18.468624220064768 ] } },
{ "type": "Feature", "properties": { "nome_faz": "FAZ. BOA LEMBRANÇA_ Vilson de Souza", "cod_cod_fazenda": "5398.0", "area_total": 380.0 }, "geometry": { "type": "Point", "coordinates": [ -40.094168993196185, -18.14806849117986 ] } },
{ "type": "Feature", "properties": { "nome_faz": "FAZ. SAYONARA  -  PROJETO 23", "cod_cod_fazenda": "213.0", "area_total": 539.1 }, "geometry": { "type": "Point", "coordinates": [ -39.954765691072858, -18.470304687099464 ] } },
{ "type": "Feature", "properties": { "nome_faz": "FAZ. JACUPEMBA I_NERZY_9628", "cod_cod_fazenda": "9628.0", "area_total": 954.36 }, "geometry": { "type": "Point", "coordinates": [ -40.116640359492557, -18.064596329914032 ] } },
{ "type": "Feature", "properties": { "nome_faz": "FAZ. JOEIRANA", "cod_cod_fazenda": "4529.0", "area_total": 1261.39 }, "geometry": { "type": "Point", "coordinates": [ -39.882075533319977, -18.531251848418957 ] } },
{ "type": "Feature", "properties": { "nome_faz": "FAZ. TREVO DA BARRA I", "cod_cod_fazenda": "442.0", "area_total": 0.0 }, "geometry": { "type": "Point", "coordinates": [ -39.884626493355952, -18.588602746617894 ] } },
{ "type": "Feature", "properties": { "nome_faz": "FAZ. CANAA_ Nerzy", "cod_cod_fazenda": "9601.0", "area_total": 7904.41 }, "geometry": { "type": "Point", "coordinates": [ -40.138645433356167, -18.013595871072976 ] } },
{ "type": "Feature", "properties": { "nome_faz": "FAZ. NOLASCO_ Nerzy Junior", "cod_cod_fazenda": "5967.0", "area_total": 0.0 }, "geometry": { "type": "Point", "coordinates": [ -40.09383644336571, -18.358984311703377 ] } },
{ "type": "Feature", "properties": { "nome_faz": "FAZ. CORDANTA F_Nerzy", "cod_cod_fazenda": "8648.0", "area_total": 4696.6 }, "geometry": { "type": "Point", "coordinates": [ -39.870992310032477, -18.458524440483185 ] } },
{ "type": "Feature", "properties": { "nome_faz": "FAZ. HORIZONTE V_ Area Comprada Jonas", "cod_cod_fazenda": "5704.0", "area_total": 1293.87 }, "geometry": { "type": "Point", "coordinates": [ -39.956453403632928, -18.400970218450862 ] } },
{ "type": "Feature", "properties": { "nome_faz": "FAZ. CANADA_ Marcelo Marabote", "cod_cod_fazenda": "7293.0", "area_total": 4187.7 }, "geometry": { "type": "Point", "coordinates": [ -40.15032834941676, -17.999965061836249 ] } },
{ "type": "Feature", "properties": { "nome_faz": "FAZ. SAYONARA  -  PROJETO 21", "cod_cod_fazenda": "191.0", "area_total": 613.5 }, "geometry": { "type": "Point", "coordinates": [ -39.963836113541241, -18.467587449478561 ] } },
{ "type": "Feature", "properties": { "nome_faz": "FAZ. ESPORA DE OURO_ Leda Maria Barbosa", "cod_cod_fazenda": "7838.0", "area_total": 94.32 }, "geometry": { "type": "Point", "coordinates": [ -40.17721476248812, -18.103187637758612 ] } },
{ "type": "Feature", "properties": { "nome_faz": "FAZ. SANTO ANTONIO_ Epaminodas", "cod_cod_fazenda": "7820.0", "area_total": 71.7 }, "geometry": { "type": "Point", "coordinates": [ -40.086071278268477, -18.048023192936231 ] } },
{ "type": "Feature", "properties": { "nome_faz": "FAZ. ITAUNINHAS_ Epaminodas", "cod_cod_fazenda": "4553.0", "area_total": 896.8 }, "geometry": { "type": "Point", "coordinates": [ -40.128889114721687, -18.101836313169059 ] } },
{ "type": "Feature", "properties": { "nome_faz": "FAZ. CHAPADAO_ Erivan Tavares", "cod_cod_fazenda": "8907.0", "area_total": 640.1 }, "geometry": { "type": "Point", "coordinates": [ -40.002605185608132, -18.292712738465315 ] } },
{ "type": "Feature", "properties": { "nome_faz": "SITIO JACUPEMBA_Valdete Lopes", "cod_cod_fazenda": "7889.0", "area_total": 344.52 }, "geometry": { "type": "Point", "coordinates": [ -40.125961987844903, -18.053790098016517 ] } },
{ "type": "Feature", "properties": { "nome_faz": "FAZ. SAYONARA  -  PROJETO 20", "cod_cod_fazenda": "329.0", "area_total": 1432.48 }, "geometry": { "type": "Point", "coordinates": [ -39.952124161993808, -18.465212534211574 ] } },
{ "type": "Feature", "properties": { "nome_faz": "FAZ. YPUEIRA II_ Nerzy Junior", "cod_cod_fazenda": "6491.0", "area_total": 455.64 }, "geometry": { "type": "Point", "coordinates": [ -40.08466414611528, -18.227650369255805 ] } },
{ "type": "Feature", "properties": { "nome_faz": "FAZ. GUARUJA_ Tannus Borges", "cod_cod_fazenda": "3557.0", "area_total": 900.56 }, "geometry": { "type": "Point", "coordinates": [ -40.070604843126702, -18.198195354798834 ] } },
{ "type": "Feature", "properties": { "nome_faz": "FAZ. SAYONARA  -  PROJETO 08", "cod_cod_fazenda": "51.0", "area_total": 279.44 }, "geometry": { "type": "Point", "coordinates": [ -39.912553569349079, -18.445790040870698 ] } },
{ "type": "Feature", "properties": { "nome_faz": "FAZ TRES DE AGOSTO_9407", "cod_cod_fazenda": "9407.0", "area_total": 7164.04 }, "geometry": { "type": "Point", "coordinates": [ -40.137553681791758, -18.117260166727991 ] } },
{ "type": "Feature", "properties": { "nome_faz": "FAZ. POLIAGRO_ Elenice Cani", "cod_cod_fazenda": "2283.0", "area_total": 1019.52 }, "geometry": { "type": "Point", "coordinates": [ -40.088091835719709, -18.150027818827827 ] } },
{ "type": "Feature", "properties": { "nome_faz": "FAZ. BARRA MANSA_Nerzy", "cod_cod_fazenda": "9822.0", "area_total": 110.22 }, "geometry": { "type": "Point", "coordinates": [ -40.050118442367172, -18.212431950855933 ] } },
{ "type": "Feature", "properties": { "nome_faz": "FAZ. SAYONARA  -  PROJETO 43", "cod_cod_fazenda": "914.0", "area_total": 7.46 }, "geometry": { "type": "Point", "coordinates": [ -39.914824489477532, -18.463214908963838 ] } },
{ "type": "Feature", "properties": { "nome_faz": "FAZ. TAQUARAS_ Epaminodas Azevedo", "cod_cod_fazenda": "4359.0", "area_total": 542.04 }, "geometry": { "type": "Point", "coordinates": [ -40.148001175576574, -18.051865473980527 ] } },
{ "type": "Feature", "properties": { "nome_faz": "FAZ. NOVO BALAO_ Flaviano Avila", "cod_cod_fazenda": "2020.0", "area_total": 120.95 }, "geometry": { "type": "Point", "coordinates": [ -39.989217136565699, -18.237123935816363 ] } },
{ "type": "Feature", "properties": { "nome_faz": "FAZ. NOVO BALAO III_ Jose Avila de Almeida", "cod_cod_fazenda": "6297.0", "area_total": 0.0 }, "geometry": { "type": "Point", "coordinates": [ -39.995235474879671, -18.254674054189859 ] } },
{ "type": "Feature", "properties": { "nome_faz": "FAZ. SANTA CECILIA_9561", "cod_cod_fazenda": "9561.0", "area_total": 600.4 }, "geometry": { "type": "Point", "coordinates": [ -40.178975713619195, -18.185110063423693 ] } },
{ "type": "Feature", "properties": { "nome_faz": "FAZ. CRISTAL_Castorina Pierote", "cod_cod_fazenda": "7871.0", "area_total": 32.22 }, "geometry": { "type": "Point", "coordinates": [ -40.108785500295696, -18.06642410575288 ] } },
{ "type": "Feature", "properties": { "nome_faz": "FAZ. SANTO ANTONIO_ Monica", "cod_cod_fazenda": "9300.0", "area_total": 370.79 }, "geometry": { "type": "Point", "coordinates": [ -39.997741687014511, -18.34390101823552 ] } },
{ "type": "Feature", "properties": { "nome_faz": "FAZ. GUARUJÁ II_3035", "cod_cod_fazenda": "3035.0", "area_total": 436.74 }, "geometry": { "type": "Point", "coordinates": [ -40.05809199496094, -18.19974292939013 ] } },
{ "type": "Feature", "properties": { "nome_faz": "FAZ. MILAGROSA_ Erivan Tavares", "cod_cod_fazenda": "5738.0", "area_total": 623.92 }, "geometry": { "type": "Point", "coordinates": [ -39.978062230531691, -18.311892324500619 ] } },
{ "type": "Feature", "properties": { "nome_faz": "SITIO BOA SORTE II_ Clodoaldo", "cod_cod_fazenda": "7145.0", "area_total": 219.15 }, "geometry": { "type": "Point", "coordinates": [ -40.11733832376612, -18.117151339042127 ] } },
{ "type": "Feature", "properties": { "nome_faz": "FAZ. ESPLANADA IV_ Renan", "cod_cod_fazenda": "2988.0", "area_total": 1191.6 }, "geometry": { "type": "Point", "coordinates": [ -40.092305526857082, -18.443132626914817 ] } },
{ "type": "Feature", "properties": { "nome_faz": "FAZ. JACUTINGA_Monica", "cod_cod_fazenda": "6530.0", "area_total": 77.6 }, "geometry": { "type": "Point", "coordinates": [ -40.03222302151255, -18.522371311813632 ] } },
{ "type": "Feature", "properties": { "nome_faz": "FAZ. SAYONARA  -  PROJETO 10", "cod_cod_fazenda": "108.0", "area_total": 3087.75 }, "geometry": { "type": "Point", "coordinates": [ -39.936146459548894, -18.449821259435055 ] } },
{ "type": "Feature", "properties": { "nome_faz": "FAZ. NOVA AMERICA_ Jose Onofre", "cod_cod_fazenda": "7781.0", "area_total": 33.74 }, "geometry": { "type": "Point", "coordinates": [ -40.085537978041572, -18.09526277056921 ] } },
{ "type": "Feature", "properties": { "nome_faz": "FAZ. SAYONARA  -  PROJETO 35", "cod_cod_fazenda": "345.0", "area_total": 1092.65 }, "geometry": { "type": "Point", "coordinates": [ -39.926942545670101, -18.488643471944346 ] } },
{ "type": "Feature", "properties": { "nome_faz": "FAZ. CORDANTA G_Nerzy", "cod_cod_fazenda": "8621.0", "area_total": 8840.34 }, "geometry": { "type": "Point", "coordinates": [ -39.87897956807933, -18.451199391781952 ] } },
{ "type": "Feature", "properties": { "nome_faz": "FAZ. EIRA DE ARAUNA_ Eudes Luiz Cani", "cod_cod_fazenda": "9016.0", "area_total": 647.7 }, "geometry": { "type": "Point", "coordinates": [ -40.186546524349005, -18.124912257348633 ] } },
{ "type": "Feature", "properties": { "nome_faz": "FAZ. PLANALTO VII_ Corrego Samabaia", "cod_cod_fazenda": "3069.0", "area_total": 1551.62 }, "geometry": { "type": "Point", "coordinates": [ -40.060878470673835, -18.34620887950129 ] } },
{ "type": "Feature", "properties": { "nome_faz": "FAZ. ATALAIA_ Erivan Tavares", "cod_cod_fazenda": "4448.0", "area_total": 921.84 }, "geometry": { "type": "Point", "coordinates": [ -39.997214903381149, -18.300926153601946 ] } },
{ "type": "Feature", "properties": { "nome_faz": "FAZ. SADIA II_ Flavio Goncalves", "cod_cod_fazenda": "3140.0", "area_total": 352.87 }, "geometry": { "type": "Point", "coordinates": [ -40.069967992515245, -18.263406272963653 ] } },
{ "type": "Feature", "properties": { "nome_faz": "FAZ. SAYONARA  -  PROJETO 31", "cod_cod_fazenda": "272.0", "area_total": 344.34 }, "geometry": { "type": "Point", "coordinates": [ -39.940547693435384, -18.487174345314223 ] } },
{ "type": "Feature", "properties": { "nome_faz": "FAZ. SAYONARA  -  PROJETO 32", "cod_cod_fazenda": "281.0", "area_total": 443.34 }, "geometry": { "type": "Point", "coordinates": [ -39.945314714701802, -18.492121530860803 ] } },
{ "type": "Feature", "properties": { "nome_faz": "FAZ. AREA DA DESTILARIA_ Cooperativa Cristal", "cod_cod_fazenda": "6114.0", "area_total": 1364.74 }, "geometry": { "type": "Point", "coordinates": [ -40.109796050084363, -18.072815911613279 ] } },
{ "type": "Feature", "properties": { "nome_faz": "FAZ. NOVO ACHADO_ Jono Crulle", "cod_cod_fazenda": "6980.0", "area_total": 31.05 }, "geometry": { "type": "Point", "coordinates": [ -40.050841836412346, -18.081019539164927 ] } },
{ "type": "Feature", "properties": { "nome_faz": "FAZ. SAYONARA  -  PROJETO 02", "cod_cod_fazenda": "27.0", "area_total": 117.8 }, "geometry": { "type": "Point", "coordinates": [ -39.921585814239684, -18.481580819179449 ] } },
{ "type": "Feature", "properties": { "nome_faz": "FAZ. GUADALAJARA I_ Kleison", "cod_cod_fazenda": "1686.0", "area_total": 1018.68 }, "geometry": { "type": "Point", "coordinates": [ -39.973876914583279, -18.211073354921176 ] } },
{ "type": "Feature", "properties": { "nome_faz": "FAZ. SITIO GALILEIA_Marcio de Jesus", "cod_cod_fazenda": "9849.0", "area_total": 25.78 }, "geometry": { "type": "Point", "coordinates": [ -40.049108906201418, -18.073925524896804 ] } },
{ "type": "Feature", "properties": { "nome_faz": "FAZ. ESPLANADA I - Herminio", "cod_cod_fazenda": "2986.0", "area_total": 287.2 }, "geometry": { "type": "Point", "coordinates": [ -40.103875893082716, -18.438719984091342 ] } },
{ "type": "Feature", "properties": { "nome_faz": "FAZ. SANTA MADALENA_ Mauricio Motta", "cod_cod_fazenda": "1317.0", "area_total": 744.17 }, "geometry": { "type": "Point", "coordinates": [ -40.046218841290226, -18.476037820398453 ] } },
{ "type": "Feature", "properties": { "nome_faz": "FAZ. SAYONARA  -  PROJETO 33", "cod_cod_fazenda": "418.0", "area_total": 389.18 }, "geometry": { "type": "Point", "coordinates": [ -39.939227230057618, -18.492694263235443 ] } },
{ "type": "Feature", "properties": { "nome_faz": "FAZ. UNIAO V_ Jorgiana Orletti", "cod_cod_fazenda": "7200.0", "area_total": 120.58 }, "geometry": { "type": "Point", "coordinates": [ -40.00945840129782, -18.326464279292427 ] } },
{ "type": "Feature", "properties": { "nome_faz": "FAZ. BELA VISTA II _ Fernando Borgo", "cod_cod_fazenda": "7501.0", "area_total": 587.72 }, "geometry": { "type": "Point", "coordinates": [ -40.14729287117035, -18.156806137747655 ] } },
{ "type": "Feature", "properties": { "nome_faz": "FAZ. UNIAO III_ Josilene Orletti", "cod_cod_fazenda": "7188.0", "area_total": 248.58 }, "geometry": { "type": "Point", "coordinates": [ -40.014176371224316, -18.316456716409398 ] } },
{ "type": "Feature", "properties": { "nome_faz": "FAZ. SAO SEBASTIAO_ Nerzy", "cod_cod_fazenda": "9976.0", "area_total": 854.05 }, "geometry": { "type": "Point", "coordinates": [ -40.15551679063487, -18.09969601248007 ] } },
{ "type": "Feature", "properties": { "nome_faz": "SITIO DO OSMAR_ Osmar Coelho", "cod_cod_fazenda": "2909.0", "area_total": 12.37 }, "geometry": { "type": "Point", "coordinates": [ -39.973086226497344, -18.254859257859597 ] } },
{ "type": "Feature", "properties": { "nome_faz": "FAZ. SANTA CECILIA II_ Carlos Alberto", "cod_cod_fazenda": "9270.0", "area_total": 1099.28 }, "geometry": { "type": "Point", "coordinates": [ -40.074539137222544, -18.424543497307344 ] } },
{ "type": "Feature", "properties": { "nome_faz": "FAZ. SAYONARA  -  PROJETO 29", "cod_cod_fazenda": "400.0", "area_total": 288.54 }, "geometry": { "type": "Point", "coordinates": [ -39.942162054710771, -18.481385067007714 ] } },
{ "type": "Feature", "properties": { "nome_faz": "FAZ. DA PEDRA", "cod_cod_fazenda": "5274.0", "area_total": 1658.25 }, "geometry": { "type": "Point", "coordinates": [ -40.165415244976309, -18.455588409799681 ] } },
{ "type": "Feature", "properties": { "nome_faz": "FAZ. ESTRELA DALVA_ Epaminodas Azevedo", "cod_cod_fazenda": "4391.0", "area_total": 3155.46 }, "geometry": { "type": "Point", "coordinates": [ -40.084750252951942, -17.995739847444767 ] } },
{ "type": "Feature", "properties": { "nome_faz": "FAZ. DELTA", "cod_cod_fazenda": "655.0", "area_total": 18258.87 }, "geometry": { "type": "Point", "coordinates": [ -39.920338864713017, -18.412562992117074 ] } },
{ "type": "Feature", "properties": { "nome_faz": "FAZ. PALMEIRA_Marcos Gusmao", "cod_cod_fazenda": "9881.0", "area_total": 78.68 }, "geometry": { "type": "Point", "coordinates": [ -40.053885235432418, -18.080119066323761 ] } },
{ "type": "Feature", "properties": { "nome_faz": "FAZ. ITAUNAS_ Disa", "cod_cod_fazenda": "7161.0", "area_total": 0.0 }, "geometry": { "type": "Point", "coordinates": [ -39.940874952846762, -18.40115652330584 ] } },
{ "type": "Feature", "properties": { "nome_faz": "FAZ. SAO SEBASTIAO_ Ana Maria Guimaraes", "cod_cod_fazenda": "0.0", "area_total": 173.86 }, "geometry": { "type": "Point", "coordinates": [ -39.929308938206013, -18.442605062087321 ] } },
{ "type": "Feature", "properties": { "nome_faz": "FAZ. NOVO HORIZONTE_ Marcelo Marabote", "cod_cod_fazenda": "7358.0", "area_total": 1044.34 }, "geometry": { "type": "Point", "coordinates": [ -40.042867056898864, -18.031679720912756 ] } },
{ "type": "Feature", "properties": { "nome_faz": "FAZ. COLIBRI_ Hilberto Pierote", "cod_cod_fazenda": "7862.0", "area_total": 55.58 }, "geometry": { "type": "Point", "coordinates": [ -40.112159881657782, -18.069957909994724 ] } },
{ "type": "Feature", "properties": { "nome_faz": "FAZ. CAMPO VERDE_NERZY_9644", "cod_cod_fazenda": "9644.0", "area_total": 249.8 }, "geometry": { "type": "Point", "coordinates": [ -40.133080185650634, -18.045280497214392 ] } },
{ "type": "Feature", "properties": { "nome_faz": "FAZ. LONDRINA I_ Epaminodas Azevedo", "cod_cod_fazenda": "4049.0", "area_total": 1075.91 }, "geometry": { "type": "Point", "coordinates": [ -40.021870444431912, -18.151587529890353 ] } },
{ "type": "Feature", "properties": { "nome_faz": "FAZ. CANAVIEIRAS_ Tiago Pierote", "cod_cod_fazenda": "4162.0", "area_total": 411.0 }, "geometry": { "type": "Point", "coordinates": [ -40.007638053447231, -18.087575452700758 ] } },
{ "type": "Feature", "properties": { "nome_faz": "FAZ. GUARUJA_ Alenice Castro", "cod_cod_fazenda": "1899.0", "area_total": 1070.55 }, "geometry": { "type": "Point", "coordinates": [ -40.063122725120579, -18.201379945723698 ] } },
{ "type": "Feature", "properties": { "nome_faz": "FAZ. Sr. MIGUEL  -  NDB", "cod_cod_fazenda": "451.0", "area_total": 83.13 }, "geometry": { "type": "Point", "coordinates": [ -39.919152237426971, -18.465647477612109 ] } },
{ "type": "Feature", "properties": { "nome_faz": "FAZ. SANTA ROSA_ Nerzy", "cod_cod_fazenda": "9610.0", "area_total": 1970.15 }, "geometry": { "type": "Point", "coordinates": [ -40.129244451431504, -18.076682763702209 ] } },
{ "type": "Feature", "properties": { "nome_faz": "FAZ. BELA VISTA_NERZY_9978", "cod_cod_fazenda": "9978.0", "area_total": 2729.35 }, "geometry": { "type": "Point", "coordinates": [ -40.192793632259551, -17.953663701981153 ] } },
{ "type": "Feature", "properties": { "nome_faz": "FAZ. BORDA DO MATO_ Clodoaldo", "cod_cod_fazenda": "9431.0", "area_total": 44.22 }, "geometry": { "type": "Point", "coordinates": [ -40.123144804780551, -18.107824699357792 ] } },
{ "type": "Feature", "properties": { "nome_faz": "FAZ. SANTA MONICA_ Maria Nazareth", "cod_cod_fazenda": "9857.0", "area_total": 138.45 }, "geometry": { "type": "Point", "coordinates": [ -40.081009750392433, -18.099749233060574 ] } },
{ "type": "Feature", "properties": { "nome_faz": "FAZ. SHIATA_ Evaristo Bayer", "cod_cod_fazenda": "1252.0", "area_total": 90.57 }, "geometry": { "type": "Point", "coordinates": [ -40.03833119037126, -18.516542739535112 ] } },
{ "type": "Feature", "properties": { "nome_faz": "SITIO NOVO HORIZONTE_Nerzy", "cod_cod_fazenda": "9504.0", "area_total": 41.72 }, "geometry": { "type": "Point", "coordinates": [ -40.11129477579253, -18.481687004264291 ] } },
{ "type": "Feature", "properties": { "nome_faz": "FAZ. DOIS IRMAOS_ Sandro Viana", "cod_cod_fazenda": "9521.0", "area_total": 158.6 }, "geometry": { "type": "Point", "coordinates": [ -40.121687609508442, -18.052969341460742 ] } },
{ "type": "Feature", "properties": { "nome_faz": "FAZ. ESPLANADA II_ Herminio", "cod_cod_fazenda": "2989.0", "area_total": 10.8 }, "geometry": { "type": "Point", "coordinates": [ -40.127699119442404, -18.454203096221235 ] } },
{ "type": "Feature", "properties": { "nome_faz": "FAZ. FORMOSA_ Vivaldo Pereira", "cod_cod_fazenda": "4511.0", "area_total": 21.31 }, "geometry": { "type": "Point", "coordinates": [ -40.055588706937286, -18.085289749130617 ] } },
{ "type": "Feature", "properties": { "nome_faz": "FAZ. AMERICA_Mario Saba", "cod_cod_fazenda": "9873.0", "area_total": 29171.48 }, "geometry": { "type": "Point", "coordinates": [ -40.274503734738431, -17.951218107008135 ] } },
{ "type": "Feature", "properties": { "nome_faz": "FAZ. CAMPO VERDE_Nerzy_Kelly", "cod_cod_fazenda": "9636.0", "area_total": 360.05 }, "geometry": { "type": "Point", "coordinates": [ -40.126879007640696, -18.042856065750726 ] } },
{ "type": "Feature", "properties": { "nome_faz": "FAZ. TREVO DA BARRA II", "cod_cod_fazenda": "1856.0", "area_total": 123.85 }, "geometry": { "type": "Point", "coordinates": [ -39.886864905496012, -18.594253945557593 ] } },
{ "type": "Feature", "properties": { "nome_faz": "FAZ. CACHOEIRA_ Gilcimar Alves", "cod_cod_fazenda": "5461.0", "area_total": 6.83 }, "geometry": { "type": "Point", "coordinates": [ -40.081639320956491, -18.114449210033612 ] } },
{ "type": "Feature", "properties": { "nome_faz": "FAZ. CORREGO JUNDIA_Donatti", "cod_cod_fazenda": "7692.0", "area_total": 0.0 }, "geometry": { "type": "Point", "coordinates": [ -39.955138494869814, -18.409112225881643 ] } },
{ "type": "Feature", "properties": { "nome_faz": "FAZ. VALE DO JABOQUE_ Esmeraldina Moraes", "cod_cod_fazenda": "3115.0", "area_total": 91.98 }, "geometry": { "type": "Point", "coordinates": [ -40.05299194255376, -18.259686170572461 ] } },
{ "type": "Feature", "properties": { "nome_faz": "FAZ. ESPLANADA III_ Jassen", "cod_cod_fazenda": "2987.0", "area_total": 225.8 }, "geometry": { "type": "Point", "coordinates": [ -40.121066715308707, -18.445410706233233 ] } },
{ "type": "Feature", "properties": { "nome_faz": "FAZ. NOVO BALAO II_ Maria Helena", "cod_cod_fazenda": "5878.0", "area_total": 0.0 }, "geometry": { "type": "Point", "coordinates": [ -39.976296050852085, -18.252111590177215 ] } },
{ "type": "Feature", "properties": { "nome_faz": "FAZ. SANTA RITA_ Epaminodas Azevedo", "cod_cod_fazenda": "4367.0", "area_total": 674.03 }, "geometry": { "type": "Point", "coordinates": [ -40.044497894646028, -18.014531207146874 ] } },
{ "type": "Feature", "properties": { "nome_faz": "FAZ. GRANADA_ Wilton Willian", "cod_cod_fazenda": "6882.0", "area_total": 52.92 }, "geometry": { "type": "Point", "coordinates": [ -40.113778491044826, -18.050943098075042 ] } },
{ "type": "Feature", "properties": { "nome_faz": "FAZ. FORTALEZA_ Elenice Cani", "cod_cod_fazenda": "4634.0", "area_total": 37.64 }, "geometry": { "type": "Point", "coordinates": [ -40.183783561360841, -18.147093820049871 ] } },
{ "type": "Feature", "properties": { "nome_faz": "FAZ. SANTA IGNES III", "cod_cod_fazenda": "9911.0", "area_total": 30855.0 }, "geometry": { "type": "Point", "coordinates": [ -40.011239835400801, -18.449554454592871 ] } },
{ "type": "Feature", "properties": { "nome_faz": "FAZ. CANA LONGA_ Tiago Pierote", "cod_cod_fazenda": "4154.0", "area_total": 486.0 }, "geometry": { "type": "Point", "coordinates": [ -40.023340028724704, -18.077761323757137 ] } },
{ "type": "Feature", "properties": { "nome_faz": "FAZ. SITIO ANDORINHA_ Dvair_Nerzy", "cod_cod_fazenda": "9784.0", "area_total": 219.16 }, "geometry": { "type": "Point", "coordinates": [ -40.05769055371745, -18.210038580428336 ] } },
{ "type": "Feature", "properties": { "nome_faz": "FAZ. SANTO AMARO_ Welton Azevedo", "cod_cod_fazenda": "9466.0", "area_total": 13.55 }, "geometry": { "type": "Point", "coordinates": [ -40.09083912394459, -18.062635140001149 ] } },
{ "type": "Feature", "properties": { "nome_faz": "FAZ. PROSPERIDADE_ Eudes Luiz Cani", "cod_cod_fazenda": "4545.0", "area_total": 64.18 }, "geometry": { "type": "Point", "coordinates": [ -40.154653462325413, -18.144844898479075 ] } },
{ "type": "Feature", "properties": { "nome_faz": "FAZ. CORREGO DO ENGANO_ Alexandre Reis", "cod_cod_fazenda": "7111.0", "area_total": 128.67 }, "geometry": { "type": "Point", "coordinates": [ -40.032887442706347, -18.127293952914744 ] } },
{ "type": "Feature", "properties": { "nome_faz": "FAZ. J7", "cod_cod_fazenda": "6670.0", "area_total": 13.48 }, "geometry": { "type": "Point", "coordinates": [ -40.028558532525516, -18.065279097689956 ] } },
{ "type": "Feature", "properties": { "nome_faz": "FAZ. SOMBRA DA TARDE_Eurico Pimentel", "cod_cod_fazenda": "6742.0", "area_total": 119.28 }, "geometry": { "type": "Point", "coordinates": [ -40.016560637205323, -18.083491249215648 ] } },
{ "type": "Feature", "properties": { "nome_faz": "FAZ. CORDANTA C_Nerzy", "cod_cod_fazenda": "8656.0", "area_total": 32734.26 }, "geometry": { "type": "Point", "coordinates": [ -39.899433824402209, -18.474162080177511 ] } },
{ "type": "Feature", "properties": { "nome_faz": "FAZ. BOA VISTA_ Quirino Lopes", "cod_cod_fazenda": "8206.0", "area_total": 40.4 }, "geometry": { "type": "Point", "coordinates": [ -40.120665802703847, -18.103458689754707 ] } },
{ "type": "Feature", "properties": { "nome_faz": "FAZ. RANCHO DA SAUDADE_ Buxexa", "cod_cod_fazenda": "1104.0", "area_total": 0.0 }, "geometry": { "type": "Point", "coordinates": [ -39.991988275164012, -18.226347880766706 ] } },
{ "type": "Feature", "properties": { "nome_faz": "FAZ. J 7_ Jarbas  Pieroti", "cod_cod_fazenda": "9792.0", "area_total": 10.05 }, "geometry": { "type": "Point", "coordinates": [ -40.03066760586843, -18.064619786042492 ] } },
{ "type": "Feature", "properties": { "nome_faz": "FAZ. NOVA AMERICA_ NDB", "cod_cod_fazenda": "3037.0", "area_total": 36.86 }, "geometry": { "type": "Point", "coordinates": [ -40.08882714361922, -18.110660477047752 ] } },
{ "type": "Feature", "properties": { "nome_faz": "FAZ. SITIO MORINGA_ Jarbas Pierote", "cod_cod_fazenda": "9377.0", "area_total": 9.73 }, "geometry": { "type": "Point", "coordinates": [ -40.109745891900836, -18.06086624238069 ] } },
{ "type": "Feature", "properties": { "nome_faz": "SITIO NOSSA SENHORA APARECIDA", "cod_cod_fazenda": "9968.0", "area_total": 247.96 }, "geometry": { "type": "Point", "coordinates": [ -40.212860456960804, -18.143897877062091 ] } },
{ "type": "Feature", "properties": { "nome_faz": "FAZ. FILADELFIA_ Nerzy_Carletto", "cod_cod_fazenda": "9814.0", "area_total": 605.64 }, "geometry": { "type": "Point", "coordinates": [ -40.151919713784331, -18.179278716900484 ] } },
{ "type": "Feature", "properties": { "nome_faz": "FAZ. AVENIDA_ Wagner Orletti", "cod_cod_fazenda": "9539.0", "area_total": 363.6 }, "geometry": { "type": "Point", "coordinates": [ -40.056637372003586, -18.33989024138857 ] } },
{ "type": "Feature", "properties": { "nome_faz": "FAZ. SANTA RITA_ Edilene Almeida", "cod_cod_fazenda": "7935.0", "area_total": 1039.08 }, "geometry": { "type": "Point", "coordinates": [ -40.252798599215822, -18.086883475029254 ] } },
{ "type": "Feature", "properties": { "nome_faz": "Faz. Tres de Agosto III_Mirian_9261", "cod_cod_fazenda": "9261.0", "area_total": 351.05 }, "geometry": { "type": "Point", "coordinates": [ -40.148496645384498, -18.131239396133438 ] } },
{ "type": "Feature", "properties": { "nome_faz": "Faz. Canadá_8516", "cod_cod_fazenda": "8516.0", "area_total": 285.2 }, "geometry": { "type": "Point", "coordinates": [ -40.154166820806836, -18.0194767447278 ] } },
{ "type": "Feature", "properties": { "nome_faz": "FAZ. PROJETO 24_221", "cod_cod_fazenda": "221.0", "area_total": 1134.0 }, "geometry": { "type": "Point", "coordinates": [ -39.947902352988393, -18.471864268442026 ] } },
{ "type": "Feature", "properties": { "nome_faz": "SITIO VEREDA TROPICAL_ Macos Gusm", "cod_cod_fazenda": "2780.0", "area_total": 30.36 }, "geometry": { "type": "Point", "coordinates": [ -40.019867883427722, -18.209024049458794 ] } },
{ "type": "Feature", "properties": { "nome_faz": "Faz. Bela Vista_6254", "cod_cod_fazenda": "6254.0", "area_total": 20.64 }, "geometry": { "type": "Point", "coordinates": [ -40.043325272641219, -18.348301155251065 ] } },
{ "type": "Feature", "properties": { "nome_faz": "FAZ. BOA LEMBRANÇA_NERZY", "cod_cod_fazenda": "9971.0", "area_total": 956.79 }, "geometry": { "type": "Point", "coordinates": [ -40.202847989200194, -17.906337634750507 ] } },
{ "type": "Feature", "properties": { "nome_faz": "FAZ. SAO JORGE_NERZY", "cod_cod_fazenda": "9989.0", "area_total": 146.75 }, "geometry": { "type": "Point", "coordinates": [ -40.235789423291969, -17.910618797929686 ] } },
{ "type": "Feature", "properties": { "nome_faz": "FAZ. BRUNELLI_EVARISTO_2038", "cod_cod_fazenda": "2038.0", "area_total": 138.1 }, "geometry": { "type": "Point", "coordinates": [ -40.037645021831835, -18.354038443758757 ] } },
{ "type": "Feature", "properties": { "nome_faz": "Faz. Rebolças_2194", "cod_cod_fazenda": "2194.0", "area_total": 732.42 }, "geometry": { "type": "Point", "coordinates": [ -40.054029117864474, -18.339828525338142 ] } },
{ "type": "Feature", "properties": { "nome_faz": "Faz. Camponesa_4821", "cod_cod_fazenda": "4821.0", "area_total": 20.83 }, "geometry": { "type": "Point", "coordinates": [ -40.091789383422949, -18.074494969457 ] } },
{ "type": "Feature", "properties": { "nome_faz": "FAZ. ANGELIM", "cod_cod_fazenda": "388.0", "area_total": 69.3 }, "geometry": { "type": "Point", "coordinates": [ -39.989156224506289, -18.510793845092593 ] } },
{ "type": "Feature", "properties": { "nome_faz": "Faz. Sempre Viva_9961", "cod_cod_fazenda": "9961.0", "area_total": 110.31 }, "geometry": { "type": "Point", "coordinates": [ -40.257163377352263, -18.038339970579095 ] } },
{ "type": "Feature", "properties": { "nome_faz": "Faz. Gameleira_8150", "cod_cod_fazenda": "8150.0", "area_total": 10.38 }, "geometry": { "type": "Point", "coordinates": [ -40.108229324097543, -18.054429517158884 ] } },
{ "type": "Feature", "properties": { "nome_faz": "Faz. Esplanada_Epichin_9920", "cod_cod_fazenda": "9920.0", "area_total": 434.63 }, "geometry": { "type": "Point", "coordinates": [ -40.127131997847862, -18.193574066841162 ] } },
{ "type": "Feature", "properties": { "nome_faz": "FAZ. LIBERDADE_JUNIOR", "cod_cod_fazenda": "9966.0", "area_total": 306.72 }, "geometry": { "type": "Point", "coordinates": [ -39.952739689097996, -18.109915644588266 ] } },
{ "type": "Feature", "properties": { "nome_faz": "FAZ. LIBERDADE_ERIVAN", "cod_cod_fazenda": "9965.0", "area_total": 719.88 }, "geometry": { "type": "Point", "coordinates": [ -39.951159795890099, -18.117246103537905 ] } },
{ "type": "Feature", "properties": { "nome_faz": "Faz. Sagrada Familia", "cod_cod_fazenda": "1716.0", "area_total": 111.44 }, "geometry": { "type": "Point", "coordinates": [ -40.024692979743079, -18.514115662092127 ] } },
{ "type": "Feature", "properties": { "nome_faz": "Faz. Aguilar_809", "cod_cod_fazenda": "809.0", "area_total": 2920.06 }, "geometry": { "type": "Point", "coordinates": [ -39.997462379690106, -18.516537649336449 ] } },
{ "type": "Feature", "properties": { "nome_faz": "Faz. Sweta_7102", "cod_cod_fazenda": "7102.0", "area_total": 4560.3 }, "geometry": { "type": "Point", "coordinates": [ -39.973611681621001, -18.525066539853427 ] } },
{ "type": "Feature", "properties": { "nome_faz": "Faz. Cineladia_3166", "cod_cod_fazenda": "3166.0", "area_total": 197.6 }, "geometry": { "type": "Point", "coordinates": [ -40.029775234877832, -18.091541165411925 ] } },
{ "type": "Feature", "properties": { "nome_faz": "FAZ. J 7_ Jarbas  Pieroti", "cod_cod_fazenda": "9702.0", "area_total": 10.05 }, "geometry": { "type": "Point", "coordinates": [ -40.031750041757064, -18.067260666265664 ] } },
{ "type": "Feature", "properties": { "nome_faz": "Faz Santo Andre_Najar", "cod_cod_fazenda": "6998.0", "area_total": 0.0 }, "geometry": { "type": "Point", "coordinates": [ -40.037483618672624, -18.027305360502606 ] } },
{ "type": "Feature", "properties": { "nome_faz": "FAZ. SCHEKINAH_ Marcelo Marabote", "cod_cod_fazenda": "7340010.0", "area_total": 134.56 }, "geometry": { "type": "Point", "coordinates": [ -40.071191813973002, -18.266293497106648 ] } },
{ "type": "Feature", "properties": { "nome_faz": "Faz. Engano_7927", "cod_cod_fazenda": "7927.0", "area_total": 11.27 }, "geometry": { "type": "Point", "coordinates": [ -40.064726894443716, -18.089555565540262 ] } },
{ "type": "Feature", "properties": { "nome_faz": "Faz. São Geraldo_9963", "cod_cod_fazenda": "9963.0", "area_total": 256.2 }, "geometry": { "type": "Point", "coordinates": [ -40.276165703985583, -18.073317648263224 ] } },
{ "type": "Feature", "properties": { "nome_faz": "Faz. Tatu Manco_7919", "cod_cod_fazenda": "7919.0", "area_total": 12658.23 }, "geometry": { "type": "Point", "coordinates": [ -40.079087968537657, -18.369266838325746 ] } },
{ "type": "Feature", "properties": { "nome_faz": "Faz. Divisa_6777", "cod_cod_fazenda": "6777.0", "area_total": 70.94 }, "geometry": { "type": "Point", "coordinates": [ -40.059887483259125, -18.058939350693709 ] } },
{ "type": "Feature", "properties": { "nome_faz": "FAZ. PLANALTO_WAGNER_9013", "cod_cod_fazenda": "9013.0", "area_total": 226.95 }, "geometry": { "type": "Point", "coordinates": [ -40.235907682277286, -17.970454356904405 ] } },
{ "type": "Feature", "properties": { "nome_faz": "FAZ. ALVORADA_ Clodoaldo Oliveira", "cod_cod_fazenda": "5592.0", "area_total": 48.2 }, "geometry": { "type": "Point", "coordinates": [ -40.124203651290507, -18.117153536996526 ] } },
{ "type": "Feature", "properties": { "nome_faz": "Faz. Floresta_Nerzy", "cod_cod_fazenda": "9004.0", "area_total": 134.73 }, "geometry": { "type": "Point", "coordinates": [ -40.007561870337689, -18.175045120742819 ] } },
{ "type": "Feature", "properties": { "nome_faz": "FAZ. CÓRREGO DO ANGELIM_8974", "cod_cod_fazenda": "8974.0", "area_total": 1172.78 }, "geometry": { "type": "Point", "coordinates": [ -39.904999443874587, -18.500913785321345 ] } },
{ "type": "Feature", "properties": { "nome_faz": "Faz. Fundão", "cod_cod_fazenda": "6378.0", "area_total": 287.52 }, "geometry": { "type": "Point", "coordinates": [ -40.077861734565722, -18.108143628111183 ] } },
{ "type": "Feature", "properties": { "nome_faz": "Faz. Nova America_Karina", "cod_cod_fazenda": "9009.0", "area_total": 649.84 }, "geometry": { "type": "Point", "coordinates": [ -40.22436948522035, -18.009380255442629 ] } },
{ "type": "Feature", "properties": { "nome_faz": "Faz. Guanabara I_Boa Esperança", "cod_cod_fazenda": "9121.0", "area_total": 3297.0 }, "geometry": { "type": "Point", "coordinates": [ -40.292977125505047, -18.346253942396551 ] } },
{ "type": "Feature", "properties": { "nome_faz": "Faz. Guanabara II_Albesa", "cod_cod_fazenda": "9113.0", "area_total": 1893.9 }, "geometry": { "type": "Point", "coordinates": [ -40.307089577731944, -18.332066111937301 ] } },
{ "type": "Feature", "properties": { "nome_faz": "FAZ. CAMPONESA_ Carlito Correia", "cod_cod_fazenda": "6696.0", "area_total": 890.6 }, "geometry": { "type": "Point", "coordinates": [ -40.09931737739835, -18.067034188461726 ] } },
{ "type": "Feature", "properties": { "nome_faz": "FAZ. CAMPONESA_ NDB", "cod_cod_fazenda": "6653.0", "area_total": 3969.84 }, "geometry": { "type": "Point", "coordinates": [ -40.092439114763408, -18.087150633473108 ] } },
{ "type": "Feature", "properties": { "nome_faz": "Faz. Santo André_Tanus", "cod_cod_fazenda": "9001.0", "area_total": 0.0 }, "geometry": { "type": "Point", "coordinates": [ -40.018163435455044, -18.019013433305393 ] } },
{ "type": "Feature", "properties": { "nome_faz": "FAZ. BOM RETIRO_ Wagner Cardoso", "cod_cod_fazenda": "3042.0", "area_total": 2405.75 }, "geometry": { "type": "Point", "coordinates": [ -40.228059442099003, -18.444132447489686 ] } },
{ "type": "Feature", "properties": { "nome_faz": "Faz. Sitio União_8940", "cod_cod_fazenda": "8940.0", "area_total": 115.92 }, "geometry": { "type": "Point", "coordinates": [ -40.060038697797772, -18.088437317367287 ] } },
{ "type": "Feature", "properties": { "nome_faz": "Faz. Santa Clara_Nerzy", "cod_cod_fazenda": "9674.0", "area_total": 0.0 }, "geometry": { "type": "Point", "coordinates": [ -40.225016757213801, -17.896574480496405 ] } },
{ "type": "Feature", "properties": { "nome_faz": "Faz. Dourada_7943", "cod_cod_fazenda": "7943.0", "area_total": 70.5 }, "geometry": { "type": "Point", "coordinates": [ -40.074193642453366, -18.063590358074773 ] } },
{ "type": "Feature", "properties": { "nome_faz": "Faz. Planalto VI_3026", "cod_cod_fazenda": "3026.0", "area_total": 283.62 }, "geometry": { "type": "Point", "coordinates": [ -40.051689555456178, -18.3748708450679 ] } },
{ "type": "Feature", "properties": { "nome_faz": "FAZ. VISTA ALEGRE_Maria", "cod_cod_fazenda": "7960.0", "area_total": 115.04 }, "geometry": { "type": "Point", "coordinates": [ -40.072203906862477, -18.089408446549651 ] } },
{ "type": "Feature", "properties": { "nome_faz": "Faz. Divisa_Luiz Freitas", "cod_cod_fazenda": "9393.0", "area_total": 44.32 }, "geometry": { "type": "Point", "coordinates": [ -40.072152043164948, -18.072921140137051 ] } },
{ "type": "Feature", "properties": { "nome_faz": "Faz. Do Juca_9969", "cod_cod_fazenda": "9969.0", "area_total": 41.22 }, "geometry": { "type": "Point", "coordinates": [ -39.970173850169083, -18.528010165935338 ] } },
{ "type": "Feature", "properties": { "nome_faz": "FAZ. SAYONARA_PROJETO 06_94", "cod_cod_fazenda": "94.0", "area_total": 368.28 }, "geometry": { "type": "Point", "coordinates": [ -39.928880556792912, -18.458475368008212 ] } },
{ "type": "Feature", "properties": { "nome_faz": "FAZ. POLONESA_9902", "cod_cod_fazenda": "9902.0", "area_total": 2189.37 }, "geometry": { "type": "Point", "coordinates": [ -39.970119901746095, -18.323831276557502 ] } },
{ "type": "Feature", "properties": { "nome_faz": "FAZ CÓRREGO DO MUTUM_4766", "cod_cod_fazenda": "4766.0", "area_total": 227.7 }, "geometry": { "type": "Point", "coordinates": [ -40.156132009341512, -18.108659495783758 ] } },
{ "type": "Feature", "properties": { "nome_faz": "FAZ. BETEL_9964", "cod_cod_fazenda": "9964.0", "area_total": 19.43 }, "geometry": { "type": "Point", "coordinates": [ -40.176683703084144, -18.152395262765896 ] } },
{ "type": "Feature", "properties": { "nome_faz": "FAZ. CANADÁ_CAIO", "cod_cod_fazenda": "9342.0", "area_total": 77.48 }, "geometry": { "type": "Point", "coordinates": [ -39.937071138581388, -18.514827283453425 ] } },
{ "type": "Feature", "properties": { "nome_faz": "Faz. Barro Vermelho_9010", "cod_cod_fazenda": "9010.0", "area_total": 69.04 }, "geometry": { "type": "Point", "coordinates": [ -40.258256594048298, -18.168016963508393 ] } },
{ "type": "Feature", "properties": { "nome_faz": "Faz. Bom Sossego", "cod_cod_fazenda": "9903.0", "area_total": 39.24 }, "geometry": { "type": "Point", "coordinates": [ -40.09292607649585, -18.103727980546257 ] } },
{ "type": "Feature", "properties": { "nome_faz": "Faz. Santa Cecilia_2259", "cod_cod_fazenda": "2259.0", "area_total": 663.28 }, "geometry": { "type": "Point", "coordinates": [ -40.154478585560113, -18.150844725301582 ] } },
{ "type": "Feature", "properties": { "nome_faz": "Faz. Limeira", "cod_cod_fazenda": "9019003.0", "area_total": 87.71 }, "geometry": { "type": "Point", "coordinates": [ -40.434185486274465, -17.853353581224489 ] } },
{ "type": "Feature", "properties": { "nome_faz": "Faz. Limeira", "cod_cod_fazenda": "9019.0", "area_total": 263.13 }, "geometry": { "type": "Point", "coordinates": [ -40.435999477097553, -17.858450043410642 ] } },
{ "type": "Feature", "properties": { "nome_faz": "FAZ. SAO DOMINGOS II", "cod_cod_fazenda": "558.0", "area_total": 3786.0000000000014 }, "geometry": { "type": "Point", "coordinates": [ -40.051763624386069, -18.542403799872904 ] } },
{ "type": "Feature", "properties": { "nome_faz": "Faz. Ex Combatente_4715", "cod_cod_fazenda": "4715.0", "area_total": 719.95 }, "geometry": { "type": "Point", "coordinates": [ -40.150154690451487, -18.462894369600402 ] } },
{ "type": "Feature", "properties": { "nome_faz": "Faz. Progresso II_Simonete_3603", "cod_cod_fazenda": "3603.0", "area_total": 13.58 }, "geometry": { "type": "Point", "coordinates": [ -40.160293319696322, -18.449601152051301 ] } },
{ "type": "Feature", "properties": { "nome_faz": "FAZ. CACHOEIRA_Buchexa", "cod_cod_fazenda": "9034.0", "area_total": 19.57 }, "geometry": { "type": "Point", "coordinates": [ -40.079546917037526, -18.111601347483088 ] } },
{ "type": "Feature", "properties": { "nome_faz": "SITIO ESPLANADA_Marcos Gusmão", "cod_cod_fazenda": "5045.0", "area_total": 129.96 }, "geometry": { "type": "Point", "coordinates": [ -40.013147596228549, -18.208354978358461 ] } },
{ "type": "Feature", "properties": { "nome_faz": "Faz. Vale das Pedras", "cod_cod_fazenda": "9020.0", "area_total": 576.06 }, "geometry": { "type": "Point", "coordinates": [ -40.42381562898462, -17.861118972494445 ] } },
{ "type": "Feature", "properties": { "nome_faz": "Faz. Bela Vista V_9017", "cod_cod_fazenda": "9017001.0", "area_total": 176.15 }, "geometry": { "type": "Point", "coordinates": [ -40.44841977484257, -17.880759179177112 ] } },
{ "type": "Feature", "properties": { "nome_faz": "Faz. Bela Vista V_9017", "cod_cod_fazenda": "9017.0", "area_total": 1056.9 }, "geometry": { "type": "Point", "coordinates": [ -40.444996273170908, -17.876366125398896 ] } },
{ "type": "Feature", "properties": { "nome_faz": "FAZ. RETIRADA DA LACUNA_9014", "cod_cod_fazenda": "9014.0", "area_total": 1049.1 }, "geometry": { "type": "Point", "coordinates": [ -40.222258949297597, -17.931813573091734 ] } },
{ "type": "Feature", "properties": { "nome_faz": "Faz. Horizonte I_752", "cod_cod_fazenda": "752.0", "area_total": 515.65 }, "geometry": { "type": "Point", "coordinates": [ -39.980667811642924, -18.426298596992638 ] } },
{ "type": "Feature", "properties": { "nome_faz": "FAZ. CORADINE I_ Evaristo Bayer", "cod_cod_fazenda": "8770.0", "area_total": 156.08 }, "geometry": { "type": "Point", "coordinates": [ -40.037045597117718, -18.345663654882539 ] } },
{ "type": "Feature", "properties": { "nome_faz": "FAZ. RITA DE CASSIA", "cod_cod_fazenda": "9326.0", "area_total": 3812.38 }, "geometry": { "type": "Point", "coordinates": [ -40.038758270642155, -18.430141997447343 ] } },
{ "type": "Feature", "properties": { "nome_faz": "Faz. Bela Vista X_9026", "cod_cod_fazenda": "9026.0", "area_total": 551.39 }, "geometry": { "type": "Point", "coordinates": [ -40.432584188383828, -17.879274676165597 ] } },
{ "type": "Feature", "properties": { "nome_faz": "FAZ. ESPLANADA I - Monica", "cod_cod_fazenda": "2984001.0", "area_total": 0.0 }, "geometry": { "type": "Point", "coordinates": [ -40.135307524150853, -18.470574584701041 ] } },
{ "type": "Feature", "properties": { "nome_faz": "FAZ. GUANABARA_III_9211", "cod_cod_fazenda": "9211.0", "area_total": 0.0 }, "geometry": { "type": "Point", "coordinates": [ -40.31329405462796, -18.334762788539983 ] } },
{ "type": "Feature", "properties": { "nome_faz": "SITIO FERREIRA_5975", "cod_cod_fazenda": "5975.0", "area_total": 56.7 }, "geometry": { "type": "Point", "coordinates": [ -40.016165324680827, -18.205743174722816 ] } },
{ "type": "Feature", "properties": { "nome_faz": "Faz. Bom Sucesso_Fabiano", "cod_cod_fazenda": "9028.0", "area_total": 0.0 }, "geometry": { "type": "Point", "coordinates": [ -40.412954416336731, -17.985348612579834 ] } },
{ "type": "Feature", "properties": { "nome_faz": "FAZ. VITORIA_9001", "cod_cod_fazenda": "9006.0", "area_total": 749.63 }, "geometry": { "type": "Point", "coordinates": [ -40.182623844129473, -18.015586304679267 ] } },
{ "type": "Feature", "properties": { "nome_faz": "FAZ. VITORIA_9001", "cod_cod_fazenda": "9002.0", "area_total": 2417.33 }, "geometry": { "type": "Point", "coordinates": [ -40.005459186890562, -18.031887709666627 ] } },
{ "type": "Feature", "properties": { "nome_faz": "Faz. Bambu_9021", "cod_cod_fazenda": "9021.0", "area_total": 102.96 }, "geometry": { "type": "Point", "coordinates": [ -40.321668726679917, -18.049593500117393 ] } },
{ "type": "Feature", "properties": { "nome_faz": "FAZ. GUARANI_9998", "cod_cod_fazenda": "9998.0", "area_total": 12.12 }, "geometry": { "type": "Point", "coordinates": [ -40.195935687187408, -17.92313011432686 ] } },
{ "type": "Feature", "properties": { "nome_faz": "FAZ. MODELO_ Monica", "cod_cod_fazenda": "8583.0", "area_total": 17633.25 }, "geometry": { "type": "Point", "coordinates": [ -40.035267364711189, -18.485939130371449 ] } },
{ "type": "Feature", "properties": { "nome_faz": "FAZ. LONDRINA_4073", "cod_cod_fazenda": "4073.0", "area_total": 30.1 }, "geometry": { "type": "Point", "coordinates": [ -40.041821081650099, -18.151002375324577 ] } },
{ "type": "Feature", "properties": { "nome_faz": "Faz. Resnascer_3913", "cod_cod_fazenda": "3913.0", "area_total": 50.86 }, "geometry": { "type": "Point", "coordinates": [ -40.034895575411817, -18.14977380247516 ] } },
{ "type": "Feature", "properties": { "nome_faz": "Faz. Itauninhas_647", "cod_cod_fazenda": "647.0", "area_total": 1140.21 }, "geometry": { "type": "Point", "coordinates": [ -40.083962956218329, -18.519902700039083 ] } },
{ "type": "Feature", "properties": { "nome_faz": "FAZ. MERCURIO_9012", "cod_cod_fazenda": "9012.0", "area_total": 139.04 }, "geometry": { "type": "Point", "coordinates": [ -40.221506618037822, -17.904731753054982 ] } },
{ "type": "Feature", "properties": { "nome_faz": "FAZ. GLEBA DE TERRA_9967", "cod_cod_fazenda": "9967.0", "area_total": 469.7 }, "geometry": { "type": "Point", "coordinates": [ -40.235005646252624, -17.918985690280902 ] } },
{ "type": "Feature", "properties": { "nome_faz": "FAZ. BELA VISTA_9007", "cod_cod_fazenda": "9007.0", "area_total": 215.68 }, "geometry": { "type": "Point", "coordinates": [ -40.42823055441071, -17.927666604448135 ] } },
{ "type": "Feature", "properties": { "nome_faz": "Faz. São Domingos IV_574", "cod_cod_fazenda": "574.0", "area_total": 7158.7 }, "geometry": { "type": "Point", "coordinates": [ -40.052659496228202, -18.524419331570403 ] } },
{ "type": "Feature", "properties": { "nome_faz": "FAZ. PECANA_Nerzy", "cod_cod_fazenda": "8672.0", "area_total": 44015.16 }, "geometry": { "type": "Point", "coordinates": [ -39.931945139494808, -18.323631266283787 ] } },
{ "type": "Feature", "properties": { "nome_faz": "FAZ. SÍTIO GILCIMAR_9890", "cod_cod_fazenda": "9890.0", "area_total": 9.7 }, "geometry": { "type": "Point", "coordinates": [ -40.078919381463855, -18.0464148254568 ] } },
{ "type": "Feature", "properties": { "nome_faz": "FAZ. LAGOINHA_8249", "cod_cod_fazenda": "8249.0", "area_total": 21.46 }, "geometry": { "type": "Point", "coordinates": [ -40.079673494473845, -18.045471308091447 ] } },
{ "type": "Feature", "properties": { "nome_faz": "FAZ. TOCA DA ONÇA_7757", "cod_cod_fazenda": "7757.0", "area_total": 23.4 }, "geometry": { "type": "Point", "coordinates": [ -40.082496899077057, -18.084879910182686 ] } },
{ "type": "Feature", "properties": { "nome_faz": "Faz. Bela Vista", "cod_cod_fazenda": "4502.0", "area_total": 37.7 }, "geometry": { "type": "Point", "coordinates": [ -40.052663164165729, -18.086878830648736 ] } },
{ "type": "Feature", "properties": { "nome_faz": "FAZ. OLHOS D'AGUA_9003", "cod_cod_fazenda": "9003.0", "area_total": 7135.45 }, "geometry": { "type": "Point", "coordinates": [ -40.303836125845088, -17.960182020461154 ] } },
{ "type": "Feature", "properties": { "nome_faz": "FAZ. CORDANTA P_8711", "cod_cod_fazenda": "8711.0", "area_total": 3355.17 }, "geometry": { "type": "Point", "coordinates": [ -39.854959672593736, -18.445649859508286 ] } },
{ "type": "Feature", "properties": { "nome_faz": "FAZ. SAQUAREMA_434", "cod_cod_fazenda": "434.0", "area_total": 257.7 }, "geometry": { "type": "Point", "coordinates": [ -39.846587237506668, -18.498940450429956 ] } },
{ "type": "Feature", "properties": { "nome_faz": "FAZ. CORDANTA L_NERZY_8371", "cod_cod_fazenda": "8371.0", "area_total": 8920.64 }, "geometry": { "type": "Point", "coordinates": [ -39.895995217206888, -18.422446805241954 ] } },
{ "type": "Feature", "properties": { "nome_faz": "FAZ. LAMANDA_7285", "cod_cod_fazenda": "7285.0", "area_total": 134.34 }, "geometry": { "type": "Point", "coordinates": [ -40.131580828324836, -18.108297442647437 ] } },
{ "type": "Feature", "properties": { "nome_faz": "Faz. Recanto_Nerzy_9923", "cod_cod_fazenda": "9923.0", "area_total": 1448.26 }, "geometry": { "type": "Point", "coordinates": [ -40.232119961082795, -17.887547901240062 ] } },
{ "type": "Feature", "properties": { "nome_faz": "FAZ. CORREGO DO ENGANO_9750", "cod_cod_fazenda": "9750.0", "area_total": 9.84 }, "geometry": { "type": "Point", "coordinates": [ -40.068079516792061, -18.081839907025966 ] } },
{ "type": "Feature", "properties": { "nome_faz": "FAZ. CORDANTA D_9024", "cod_cod_fazenda": "9024.0", "area_total": 1582.49 }, "geometry": { "type": "Point", "coordinates": [ -39.905844483004323, -18.458755895214857 ] } },
{ "type": "Feature", "properties": { "nome_faz": "FAZ. EQUILANDIA_9031", "cod_cod_fazenda": "9031.0", "area_total": 248.96 }, "geometry": { "type": "Point", "coordinates": [ -40.283479607529735, -17.940892514329747 ] } },
{ "type": "Feature", "properties": { "nome_faz": "FAZ. CORREGO DO MACUCO_5363", "cod_cod_fazenda": "5363.0", "area_total": 554.67 }, "geometry": { "type": "Point", "coordinates": [ -39.956626824321056, -18.529842135221408 ] } },
{ "type": "Feature", "properties": { "nome_faz": "Faz. Santo Antonio Progresso_1741", "cod_cod_fazenda": "1741.0", "area_total": 1875.3 }, "geometry": { "type": "Point", "coordinates": [ -40.166071999220208, -18.389767163595469 ] } },
{ "type": "Feature", "properties": { "nome_faz": "Faz. Graciosa_2348", "cod_cod_fazenda": "2348.0", "area_total": 1233.9 }, "geometry": { "type": "Point", "coordinates": [ -40.202901454520259, -18.439641590199582 ] } },
{ "type": "Feature", "properties": { "nome_faz": "Faz. Sombra da Tarde_7137", "cod_cod_fazenda": "7137.0", "area_total": 0.0 }, "geometry": { "type": "Point", "coordinates": [ -40.028756291858151, -18.080394418950533 ] } },
{ "type": "Feature", "properties": { "nome_faz": "FAZ ZE MATIAS II_8222", "cod_cod_fazenda": "8222.0", "area_total": 11151.36 }, "geometry": { "type": "Point", "coordinates": [ -39.958141039886193, -18.440509329865179 ] } },
{ "type": "Feature", "properties": { "nome_faz": "FAZ. ITAUNINHAS_DELVIT_2739", "cod_cod_fazenda": "2739.0", "area_total": 106.5 }, "geometry": { "type": "Point", "coordinates": [ -40.091676400838779, -18.518164070456784 ] } },
{ "type": "Feature", "properties": { "nome_faz": "Faz. Sayonara_Projeto 11_116", "cod_cod_fazenda": "116.0", "area_total": 1175.57 }, "geometry": { "type": "Point", "coordinates": [ -39.933114516353832, -18.461470816841206 ] } },
{ "type": "Feature", "properties": { "nome_faz": "SITIO CORR DO MACUCO_BIBI_9972", "cod_cod_fazenda": "9972.0", "area_total": 49.38 }, "geometry": { "type": "Point", "coordinates": [ -39.958145992210603, -18.517666031573786 ] } },
{ "type": "Feature", "properties": { "nome_faz": "FAZ. SÃO DOMINGOS VII_710", "cod_cod_fazenda": "710.0", "area_total": 1099.8 }, "geometry": { "type": "Point", "coordinates": [ -40.044627987715337, -18.507477168833709 ] } },
{ "type": "Feature", "properties": { "nome_faz": "FAZ. SÃO DOMINGOS VIII_795", "cod_cod_fazenda": "795.0", "area_total": 146.16 }, "geometry": { "type": "Point", "coordinates": [ -40.067643985473616, -18.520377638922387 ] } },
{ "type": "Feature", "properties": { "nome_faz": "FAZ. SÃO DOMINGOS V_523", "cod_cod_fazenda": "523.0", "area_total": 106.11 }, "geometry": { "type": "Point", "coordinates": [ -40.047598113690341, -18.517246100279042 ] } },
{ "type": "Feature", "properties": { "nome_faz": "FAZ. SÃO BENEDITO_NERZY_9661", "cod_cod_fazenda": "9661.0", "area_total": 230.68 }, "geometry": { "type": "Point", "coordinates": [ -40.05696070065077, -18.039902042959099 ] } },
{ "type": "Feature", "properties": { "nome_faz": "FAZ. SÃO BENEDITO_NERZY_9652", "cod_cod_fazenda": "9652.0", "area_total": 260.85 }, "geometry": { "type": "Point", "coordinates": [ -40.067063032547395, -18.045833497303679 ] } },
{ "type": "Feature", "properties": { "nome_faz": "Faz. Vista Alegre Buxexa_4588", "cod_cod_fazenda": "4588.0", "area_total": 69.52 }, "geometry": { "type": "Point", "coordinates": [ -40.064421029395305, -18.092947097383107 ] } },
{ "type": "Feature", "properties": { "nome_faz": "FAZ FORTALEZA_8410", "cod_cod_fazenda": "8410.0", "area_total": 542.15 }, "geometry": { "type": "Point", "coordinates": [ -40.13865494408536, -18.13242284853969 ] } },
{ "type": "Feature", "properties": { "nome_faz": "FAZ. CAJARANA III_8408", "cod_cod_fazenda": "8408.0", "area_total": 122.48 }, "geometry": { "type": "Point", "coordinates": [ -39.983944170521234, -18.240717120476614 ] } },
{ "type": "Feature", "properties": { "nome_faz": "FAZ. ESPERANÇA_8409", "cod_cod_fazenda": "8409.0", "area_total": 52.24 }, "geometry": { "type": "Point", "coordinates": [ -39.969923977305598, -18.232008176101925 ] } },
{ "type": "Feature", "properties": { "nome_faz": "FAZ. PROJETO 37_302", "cod_cod_fazenda": "302.0", "area_total": 168.21 }, "geometry": { "type": "Point", "coordinates": [ -39.94499519646785, -18.502351331220911 ] } },
{ "type": "Feature", "properties": { "nome_faz": "FAZ. CÓRREGO DA JACUTINGA_6424", "cod_cod_fazenda": "6424.0", "area_total": 68.85 }, "geometry": { "type": "Point", "coordinates": [ -40.038596661903746, -18.458948477580229 ] } },
{ "type": "Feature", "properties": { "nome_faz": "FAZ. ZILDI_2925", "cod_cod_fazenda": "2925.0", "area_total": 5.14 }, "geometry": { "type": "Point", "coordinates": [ -40.033952411758023, -18.510839813488385 ] } },
{ "type": "Feature", "properties": { "nome_faz": "FAZ. MIAMI_540", "cod_cod_fazenda": "540.0", "area_total": 84.8 }, "geometry": { "type": "Point", "coordinates": [ -40.066451365924202, -18.541758482542843 ] } },
{ "type": "Feature", "properties": { "nome_faz": "FAZ. SÍTIO JUREMA_9441", "cod_cod_fazenda": "9441.0", "area_total": 31.44 }, "geometry": { "type": "Point", "coordinates": [ -40.106282432927223, -18.064400476096857 ] } },
{ "type": "Feature", "properties": { "nome_faz": "FAZ. N. S. APARECIDA_1724", "cod_cod_fazenda": "1724.0", "area_total": 4.72 }, "geometry": { "type": "Point", "coordinates": [ -39.921989351350334, -18.492233960084217 ] } },
{ "type": "Feature", "properties": { "nome_faz": "FAZ. CORUJÃO_6106", "cod_cod_fazenda": "6106.0", "area_total": 88.26 }, "geometry": { "type": "Point", "coordinates": [ -40.124522391773553, -18.111489799802907 ] } },
{ "type": "Feature", "properties": { "nome_faz": "Faz. Corrego do Engano Carmem_5487", "cod_cod_fazenda": "5487.0", "area_total": 23.26 }, "geometry": { "type": "Point", "coordinates": [ -40.070470426060737, -18.080801567184331 ] } },
{ "type": "Feature", "properties": { "nome_faz": "FAZ. CORREGO DO ENGANO_9288", "cod_cod_fazenda": "9288.0", "area_total": 54.39 }, "geometry": { "type": "Point", "coordinates": [ -40.063113634202324, -18.08412107728682 ] } },
{ "type": "Feature", "properties": { "nome_faz": "FAZ. DOIS IRMÃOS_9906", "cod_cod_fazenda": "9906.0", "area_total": 468.7 }, "geometry": { "type": "Point", "coordinates": [ -40.011617089608961, -18.120348856756763 ] } },
{ "type": "Feature", "properties": { "nome_faz": "FAZ. SÃO BENEDITO_Luiz_9938", "cod_cod_fazenda": "9938.0", "area_total": 183.92 }, "geometry": { "type": "Point", "coordinates": [ -40.05068650036992, -18.034486013638567 ] } },
{ "type": "Feature", "properties": { "nome_faz": "FAZ. FLOR DO CAMPO_9555", "cod_cod_fazenda": "9555.0", "area_total": 383.0 }, "geometry": { "type": "Point", "coordinates": [ -40.142399120046839, -18.097086092461861 ] } },
{ "type": "Feature", "properties": { "nome_faz": "FAZ. SEMENTE DA CAFELANDIA_7854", "cod_cod_fazenda": "7854.0", "area_total": 55.24 }, "geometry": { "type": "Point", "coordinates": [ -40.13458133463552, -18.091692422684801 ] } },
{ "type": "Feature", "properties": { "nome_faz": "FAZ. GREJUÁ_9975", "cod_cod_fazenda": "9975.0", "area_total": 225.93 }, "geometry": { "type": "Point", "coordinates": [ -39.811658270467923, -18.176286562228018 ] } },
{ "type": "Feature", "properties": { "nome_faz": "FAZ. CAPIXABA_5266", "cod_cod_fazenda": "5266.0", "area_total": 29.04 }, "geometry": { "type": "Point", "coordinates": [ -39.998252355684478, -18.18889557399871 ] } },
{ "type": "Feature", "properties": { "nome_faz": "FAZ. BAHIA II_9036", "cod_cod_fazenda": "9036.0", "area_total": 7310.71 }, "geometry": { "type": "Point", "coordinates": [ -39.820632396658027, -18.170573157423714 ] } },
{ "type": "Feature", "properties": { "nome_faz": "Faz. Rancho Guarani_9999", "cod_cod_fazenda": "9999.0", "area_total": 87.75 }, "geometry": { "type": "Point", "coordinates": [ -40.200798922198146, -17.921000568125617 ] } },
{ "type": "Feature", "properties": { "nome_faz": "FAZ. TUBARAO II_ Durvalina", "cod_cod_fazenda": "2631.0", "area_total": 503.52 }, "geometry": { "type": "Point", "coordinates": [ -39.962832468749852, -18.25707883478449 ] } },
{ "type": "Feature", "properties": { "nome_faz": "FAZ. ESPERANÇA_2411", "cod_cod_fazenda": "2411.0", "area_total": 312.3 }, "geometry": { "type": "Point", "coordinates": [ -39.984344656876274, -18.252773041610933 ] } },
{ "type": "Feature", "properties": { "nome_faz": "FAZ. LARANJEIRAS - Sebastiao Avila", "cod_cod_fazenda": "1929.0", "area_total": 9.3 }, "geometry": { "type": "Point", "coordinates": [ -39.987687054378519, -18.249167045106944 ] } },
{ "type": "Feature", "properties": { "nome_faz": "FAZ. NOVO BALAO II_ Montival", "cod_cod_fazenda": "5860.0", "area_total": 118.32 }, "geometry": { "type": "Point", "coordinates": [ -39.984179107688092, -18.231327420314848 ] } },
{ "type": "Feature", "properties": { "nome_faz": "FAZ. VISTA ALEGRE_ Wilton Azevedo", "cod_cod_fazenda": "4251.0", "area_total": 71.68 }, "geometry": { "type": "Point", "coordinates": [ -40.068751476909632, -18.091152771025744 ] } },
{ "type": "Feature", "properties": { "nome_faz": "FAZ. SÃO SEBASTIÃO_8640", "cod_cod_fazenda": "8640.0", "area_total": 1044.56 }, "geometry": { "type": "Point", "coordinates": [ -40.163291419797929, -18.110463622044634 ] } },
{ "type": "Feature", "properties": { "nome_faz": "FAZ. PARAISO_9973", "cod_cod_fazenda": "9973.0", "area_total": 2116.32 }, "geometry": { "type": "Point", "coordinates": [ -40.2921675588819, -18.109406520592298 ] } },
{ "type": "Feature", "properties": { "nome_faz": "FAZ. FERREIRA II_ Ronaldo Texeira", "cod_cod_fazenda": "3310.0", "area_total": 94.44 }, "geometry": { "type": "Point", "coordinates": [ -40.024586331727789, -18.201833716350144 ] } },
{ "type": "Feature", "properties": { "nome_faz": "FAZ. GRANADA_ Lucas Azevedo", "cod_cod_fazenda": "9334.0", "area_total": 14.32 }, "geometry": { "type": "Point", "coordinates": [ -40.115964082968098, -18.052823905323415 ] } },
{ "type": "Feature", "properties": { "nome_faz": "FAZ. GAIVOTA_9979", "cod_cod_fazenda": "9979.0", "area_total": 1645.5 }, "geometry": { "type": "Point", "coordinates": [ -39.981096265617644, -18.140108605584565 ] } },
{ "type": "Feature", "properties": { "nome_faz": "Faz. Vila Capixaba_Nerzy_9942", "cod_cod_fazenda": "9942.0", "area_total": 718.38 }, "geometry": { "type": "Point", "coordinates": [ -40.191245008457102, -17.965279793805657 ] } },
{ "type": "Feature", "properties": { "nome_faz": "Faz. Frente da Lacuna_Nerzy_9035", "cod_cod_fazenda": "9035.0", "area_total": 2733.3 }, "geometry": { "type": "Point", "coordinates": [ -40.202881703716812, -17.955547760205977 ] } },
{ "type": "Feature", "properties": { "nome_faz": "Faz. Frente da Lacuna II_Vanilso_9040", "cod_cod_fazenda": "9040.0", "area_total": 618.17 }, "geometry": { "type": "Point", "coordinates": [ -40.208826387825589, -17.937514935312009 ] } },
{ "type": "Feature", "properties": { "nome_faz": "Faz. Nova Lima_361", "cod_cod_fazenda": "361.0", "area_total": 785.7 }, "geometry": { "type": "Point", "coordinates": [ -40.0066940786499, -18.49775958826573 ] } },
{ "type": "Feature", "properties": { "nome_faz": "FAZ. FASCINAÇÃO II_BUSSOLAR_8818", "cod_cod_fazenda": "8818.0", "area_total": 0.0 }, "geometry": { "type": "Point", "coordinates": [ -40.04347187359631, -18.485283107427009 ] } },
{ "type": "Feature", "properties": { "nome_faz": "FAZENDA SEDE", "cod_cod_fazenda": "3671.0", "area_total": 0.0 }, "geometry": { "type": "Point", "coordinates": [ -39.946501640610649, -18.459025660531392 ] } },
{ "type": "Feature", "properties": { "nome_faz": "FAZ. CORDANTA A_8664", "cod_cod_fazenda": "8664.0", "area_total": 16330.44 }, "geometry": { "type": "Point", "coordinates": [ -39.892933120847594, -18.48587023710418 ] } },
{ "type": "Feature", "properties": { "nome_faz": "FAZ. PALMEIRAS_8699", "cod_cod_fazenda": "8699.0", "area_total": 12263.6 }, "geometry": { "type": "Point", "coordinates": [ -39.940972285043749, -18.341589957190035 ] } },
{ "type": "Feature", "properties": { "nome_faz": "FAZ. JUNDIÁ II_5711", "cod_cod_fazenda": "5711.0", "area_total": 1060.8 }, "geometry": { "type": "Point", "coordinates": [ -39.863929232326306, -18.352459917757454 ] } },
{ "type": "Feature", "properties": { "nome_faz": "FAZ. VIOLETA_9925", "cod_cod_fazenda": "9925.0", "area_total": 782.37 }, "geometry": { "type": "Point", "coordinates": [ -39.938600301397365, -18.220436294996848 ] } },
{ "type": "Feature", "properties": { "nome_faz": "FAZ. FRENTE DA LACUNA III_9018", "cod_cod_fazenda": "9018.0", "area_total": 653.5 }, "geometry": { "type": "Point", "coordinates": [ -40.192323253609388, -17.926314763418233 ] } },
{ "type": "Feature", "properties": { "nome_faz": "FAZ. SÃO ROQUE_9037", "cod_cod_fazenda": "9037.0", "area_total": 2753.01 }, "geometry": { "type": "Point", "coordinates": [ -39.951069953327227, -18.17741464437681 ] } },
{ "type": "Feature", "properties": { "nome_faz": "FAZ. SOUZA LINDA_9974", "cod_cod_fazenda": "9974.0", "area_total": 874.9 }, "geometry": { "type": "Point", "coordinates": [ -39.941682858409763, -18.182418699911292 ] } },
{ "type": "Feature", "properties": { "nome_faz": "FAZ. RECANTO DO MUCURI_9981", "cod_cod_fazenda": "9981.0", "area_total": 1283.1 }, "geometry": { "type": "Point", "coordinates": [ -40.197403627529511, -17.934028515370922 ] } },
{ "type": "Feature", "properties": { "nome_faz": "FAZ. MUCURI_9015", "cod_cod_fazenda": "9015.0", "area_total": 1340.92 }, "geometry": { "type": "Point", "coordinates": [ -39.782359232153844, -18.182320834020256 ] } },
{ "type": "Feature", "properties": { "nome_faz": "FAZ. SITIO NOVA DESCOBERTA", "cod_cod_fazenda": "9983.0", "area_total": 39.18 }, "geometry": { "type": "Point", "coordinates": [ -39.997016168484663, -18.266858733297113 ] } },
{ "type": "Feature", "properties": { "nome_faz": "FAZ. SANTA CECILIA_9561", "cod_cod_fazenda": "9561003.0", "area_total": 75.05 }, "geometry": { "type": "Point", "coordinates": [ -40.176852428866219, -18.181162861838295 ] } },
{ "type": "Feature", "properties": { "nome_faz": "FAZ. CAPIXABA_JAYME_977", "cod_cod_fazenda": "9977.0", "area_total": 1892.64 }, "geometry": { "type": "Point", "coordinates": [ -39.77374391626433, -18.183250776417125 ] } },
{ "type": "Feature", "properties": { "nome_faz": "FAZ. SERENA_9982", "cod_cod_fazenda": "9982.0", "area_total": 139.05 }, "geometry": { "type": "Point", "coordinates": [ -40.188451737014489, -18.182298524154898 ] } },
{ "type": "Feature", "properties": { "nome_faz": "SÍTIO SANTO ANTÔNIO_9593", "cod_cod_fazenda": "9593.0", "area_total": 84.3 }, "geometry": { "type": "Point", "coordinates": [ -40.192039525240979, -18.169939931664004 ] } },
{ "type": "Feature", "properties": { "nome_faz": "FAZ. BOAPABA_6467", "cod_cod_fazenda": "6467.0", "area_total": 643.32 }, "geometry": { "type": "Point", "coordinates": [ -40.075329680108482, -18.523059217019473 ] } },
{ "type": "Feature", "properties": { "nome_faz": "Faz. Projeto 30", "cod_cod_fazenda": "264.0", "area_total": 333.36 }, "geometry": { "type": "Point", "coordinates": [ -39.931786570825267, -18.484005358861705 ] } },
{ "type": "Feature", "properties": { "nome_faz": "FAZ. HERINGER", "cod_cod_fazenda": "6220.0", "area_total": 0.0 }, "geometry": { "type": "Point", "coordinates": [ -40.100901698433439, -18.388793010270025 ] } },
{ "type": "Feature", "properties": { "nome_faz": "9717", "cod_cod_fazenda": "9717005.0", "area_total": 89.15 }, "geometry": { "type": "Point", "coordinates": [ -40.015955279264091, -18.131347259929676 ] } },
{ "type": "Feature", "properties": { "nome_faz": "FAZ. TRES LAGOAS_9717", "cod_cod_fazenda": "9717.0", "area_total": 1158.95 }, "geometry": { "type": "Point", "coordinates": [ -40.015955279264091, -18.131347259929676 ] } },
{ "type": "Feature", "properties": { "nome_faz": "Faz. Sayonara_Projeto 07", "cod_cod_fazenda": "43.0", "area_total": 133.8 }, "geometry": { "type": "Point", "coordinates": [ -39.919181760237329, -18.454588219300486 ] } },
{ "type": "Feature", "properties": { "nome_faz": "Faz. Santa Clara_Wanilso Moreira", "cod_cod_fazenda": "9485.0", "area_total": 289.26 }, "geometry": { "type": "Point", "coordinates": [ -40.235465616885428, -17.945151753354349 ] } },
{ "type": "Feature", "properties": { "nome_faz": "FAZ. BUENA SORTE", "cod_cod_fazenda": "7129.0", "area_total": 11320.14 }, "geometry": { "type": "Point", "coordinates": [ -40.307522783501646, -18.431623452975575 ] } },
{ "type": "Feature", "properties": { "nome_faz": "FAZ. BOM PRAZER_9405", "cod_cod_fazenda": "9405.0", "area_total": 74.79 }, "geometry": { "type": "Point", "coordinates": [ -40.185825049271976, -17.937262078247858 ] } },
{ "type": "Feature", "properties": { "nome_faz": "FAZ. BOM JESUS_8001", "cod_cod_fazenda": "8001.0", "area_total": 18.54 }, "geometry": { "type": "Point", "coordinates": [ -40.122620252032945, -18.05874198877493 ] } },
{ "type": "Feature", "properties": { "nome_faz": "Faz. Cordanta M_9237", "cod_cod_fazenda": "9237.0", "area_total": 1490.06 }, "geometry": { "type": "Point", "coordinates": [ -39.897231127332198, -18.411249816337392 ] } },
{ "type": "Feature", "properties": { "nome_faz": "Faz. Delta II_1708", "cod_cod_fazenda": "1708.0", "area_total": 91.29 }, "geometry": { "type": "Point", "coordinates": [ -39.903144905413463, -18.418449788886406 ] } },
{ "type": "Feature", "properties": { "nome_faz": "Faz. Eqlandia_9031", "cod_cod_fazenda": "9984.0", "area_total": 554.15 }, "geometry": { "type": "Point", "coordinates": [ -40.299522364744554, -17.954453166816904 ] } },
{ "type": "Feature", "properties": { "nome_faz": "FAZ. BANDEIRANTES_9303", "cod_cod_fazenda": "9303.0", "area_total": 962.08 }, "geometry": { "type": "Point", "coordinates": [ -40.348720440314139, -17.88382628593347 ] } },
{ "type": "Feature", "properties": { "nome_faz": "FAZ. SÃO PEDRO_9929", "cod_cod_fazenda": "9929.0", "area_total": 89.04 }, "geometry": { "type": "Point", "coordinates": [ -40.243753648612795, -17.954680774833648 ] } },
{ "type": "Feature", "properties": { "nome_faz": "FAZ. SANTA CRUZ_6726", "cod_cod_fazenda": "6726.0", "area_total": 119.0 }, "geometry": { "type": "Point", "coordinates": [ -40.071955481649333, -18.104982788896805 ] } },
{ "type": "Feature", "properties": { "nome_faz": "FAZ. SANTA CRUZ_6726", "cod_cod_fazenda": "6721.0", "area_total": 29.75 }, "geometry": { "type": "Point", "coordinates": [ -40.072215364904764, -18.10713507302118 ] } },
{ "type": "Feature", "properties": { "nome_faz": "FAZ. BORSOI_6700", "cod_cod_fazenda": "6700.0", "area_total": 277.44 }, "geometry": { "type": "Point", "coordinates": [ -40.059882175646123, -18.097898737953091 ] } },
{ "type": "Feature", "properties": { "nome_faz": "FAZ. FONTE NOVA_8184", "cod_cod_fazenda": "8184.0", "area_total": 1920.88 }, "geometry": { "type": "Point", "coordinates": [ -40.156235884882534, -18.026963754560171 ] } },
{ "type": "Feature", "properties": { "nome_faz": "Faz. Campo Alegre_Faissal_9234", "cod_cod_fazenda": "9234.0", "area_total": 3174.92 }, "geometry": { "type": "Point", "coordinates": [ -40.170788499550241, -17.999554516927184 ] } },
{ "type": "Feature", "properties": { "nome_faz": "FAZ. FRENTE DA LACUNA II_9032", "cod_cod_fazenda": "9032.0", "area_total": 7.61 }, "geometry": { "type": "Point", "coordinates": [ -40.204645073412323, -17.935434227585844 ] } },
{ "type": "Feature", "properties": { "nome_faz": "FAZ. BOA VISTA_ERIVAN_9754", "cod_cod_fazenda": "9754.0", "area_total": 164.2 }, "geometry": { "type": "Point", "coordinates": [ -39.976397034862565, -18.633840902707821 ] } },
{ "type": "Feature", "properties": { "nome_faz": "FAZ. BOA VISTA_ERIVAN_9754", "cod_cod_fazenda": "9754005.0", "area_total": 41.05 }, "geometry": { "type": "Point", "coordinates": [ -39.977420681597067, -18.631942046609797 ] } }
]
}
