{
"type": "FeatureCollection",
"name": "mapa_catacao_resultado",
"crs": { "type": "name", "properties": { "name": "urn:ogc:def:crs:OGC:1.3:CRS84" } },
"features": [
{ "type": "Feature", "properties": { "NOME": "Talhao Teste", "TIPO": "Aplicacao Localizada (Catação)", "AREA_HA": 40.409485413995313 }, "geometry": { "type": "MultiPolygon", "coordinates": [ [ [ [ -55.122322106775044, -12.342046143436328 ], [ -55.12232468349309, -12.341684612318096 ], [ -55.122692402148679, -12.341687145390749 ], [ -55.122694978281466, -12.341325614185953 ], [ -55.122697554332881, -12.340964082971064 ], [ -55.122700130302938, -12.340602551746073 ], [ -55.122702706191639, -12.340241020510987 ], [ -55.122705281998982, -12.339879489265801 ], [ -55.122337565862622, -12.339876956575447 ], [ -55.122340142092398, -12.339515425396623 ], [ -55.121972426541213, -12.339512892287383 ], [ -55.121975003193398, -12.339151361174935 ], [ -55.121607288227388, -12.339148827646836 ], [ -55.121609865301949, -12.338787296600779 ], [ -55.121242150921113, -12.338784762653857 ], [ -55.120874436621691, -12.338782228211628 ], [ -55.120506722403711, -12.338779693274082 ], [ -55.120139008267181, -12.33877715784123 ], [ -55.119771294212129, -12.338774621913066 ], [ -55.119768714618743, -12.339136152576462 ], [ -55.119401000141409, -12.33913361607641 ], [ -55.119398419962756, -12.33949514665313 ], [ -55.119030705063139, -12.339492609581166 ], [ -55.119028124299192, -12.339854140071191 ], [ -55.118660408977306, -12.339851602427283 ], [ -55.118657827628034, -12.3402131328306 ], [ -55.118655246197221, -12.340574663223823 ], [ -55.118652664684873, -12.340936193606945 ], [ -55.118650083090998, -12.341297723979968 ], [ -55.11864750141558, -12.341659254342888 ], [ -55.119015219256674, -12.341661792369843 ], [ -55.119012638003611, -12.342023322799271 ], [ -55.119380356430113, -12.342025860407388 ], [ -55.119377775599432, -12.342387390903314 ], [ -55.119745494611351, -12.342389928092565 ], [ -55.11974291420308, -12.342751458654966 ], [ -55.120110633800415, -12.342753995425326 ], [ -55.120478353479228, -12.342756531700212 ], [ -55.120846073239491, -12.342759067479625 ], [ -55.121213793081203, -12.342761602763559 ], [ -55.121581513004344, -12.342764137552017 ], [ -55.121584090892988, -12.342402606606942 ], [ -55.121951810393611, -12.342405140823436 ], [ -55.121954387696945, -12.342043609791773 ], [ -55.122322106775044, -12.342046143436328 ] ] ], [ [ [ -55.117528847546062, -12.34382081787537 ], [ -55.117161127007648, -12.343818277406696 ], [ -55.117163711188169, -12.343456747410974 ], [ -55.116795991235321, -12.34345420652347 ], [ -55.116798575838189, -12.343092676594326 ], [ -55.117166295287085, -12.343095217405143 ], [ -55.117168879304394, -12.342733687389215 ], [ -55.117536598330958, -12.342736227627881 ], [ -55.117539181762751, -12.342374697525178 ], [ -55.117541765112954, -12.342013167412375 ], [ -55.117544348381578, -12.34165163728947 ], [ -55.117546931568612, -12.341290107156464 ], [ -55.11754951467406, -12.340928577013358 ], [ -55.117181798166939, -12.340926037158033 ], [ -55.117184381694642, -12.340564507081494 ], [ -55.116816665772951, -12.34056196680746 ], [ -55.116819249722887, -12.340200436797502 ], [ -55.116451534386641, -12.340197896104783 ], [ -55.116454118758753, -12.339836366161423 ], [ -55.116086404007945, -12.339833825050052 ], [ -55.115718689338777, -12.339831283443335 ], [ -55.115350974751273, -12.33982874134127 ], [ -55.114983260245445, -12.339826198743856 ], [ -55.114615545821309, -12.339823655651093 ], [ -55.114612958930167, -12.340185185210741 ], [ -55.114245244083939, -12.340182641545846 ], [ -55.11424265660726, -12.340544171018605 ], [ -55.113874941338942, -12.340541626781544 ], [ -55.113872353276705, -12.3409031561674 ], [ -55.113504637586296, -12.340900611358149 ], [ -55.113502048938464, -12.341262140657081 ], [ -55.113499460208878, -12.341623669945912 ], [ -55.11349687139753, -12.341985199224641 ], [ -55.113494282504419, -12.342346728493267 ], [ -55.113491693529546, -12.342708257751791 ], [ -55.113859411739369, -12.342710802945133 ], [ -55.113856823186666, -12.343072332270367 ], [ -55.114224541982168, -12.343074877045046 ], [ -55.114221953851661, -12.343436406436982 ], [ -55.113854234552214, -12.343433861585497 ], [ -55.113851645836021, -12.34379539089052 ], [ -55.113483926114363, -12.343792845466723 ], [ -55.113481336812448, -12.344154374684821 ], [ -55.113478747428758, -12.34451590389282 ], [ -55.113476157963312, -12.344877433090707 ], [ -55.113473568416097, -12.34523896227849 ], [ -55.113470982307412, -12.3456 ], [ -55.113838722780471, -12.3456 ], [ -55.114206463324621, -12.3456 ], [ -55.114574203939853, -12.3456 ], [ -55.114941944626139, -12.3456 ], [ -55.115309685383501, -12.3456 ], [ -55.115677426211874, -12.3456 ], [ -55.116045167111295, -12.3456 ], [ -55.116412908081728, -12.3456 ], [ -55.11678064912315, -12.3456 ], [ -55.117148390235556, -12.3456 ], [ -55.117516131418938, -12.3456 ], [ -55.117518512023963, -12.34526693806391 ], [ -55.117521096026877, -12.344905408031931 ], [ -55.117523679948192, -12.344543877989848 ], [ -55.117526263787923, -12.344182347937661 ], [ -55.117528847546062, -12.34382081787537 ] ] ] ] } }
]
}
